<gpx xmlns="http://www.topografix.com/GPX/1/1" xmlns:xsi="http://www.w3.org/2001/XMLSchema-instance" xsi:schemaLocation="http://www.topografix.com/GPX/1/1 http://www.topografix.com/GPX/1/1/gpx.xsd" version="1.1" creator="OpenLayers"><wpt lat="59.565103" lon="10.256187"><ele>25.5</ele><name>Starten på blå løype</name></wpt><wpt lat="59.565103" lon="10.256184"><ele>25.5</ele><name>Slutten på blå løype</name></wpt><rte><name>blå løype</name><rtept lat="59.565102" lon="10.256195"/><rtept lat="59.56509" lon="10.256012"/><rtept lat="59.565078" lon="10.255828"/><rtept lat="59.565071" lon="10.255748"/><rtept lat="59.565063" lon="10.255668"/><rtept lat="59.565038" lon="10.255622"/><rtept lat="59.565018" lon="10.255567"/><rtept lat="59.564997" lon="10.255509"/><rtept lat="59.56497" lon="10.255453"/><rtept lat="59.564945" lon="10.255418"/><rtept lat="59.564916" lon="10.255363"/><rtept lat="59.564894" lon="10.255343"/><rtept lat="59.564864" lon="10.255324"/><rtept lat="59.564791" lon="10.255273"/><rtept lat="59.564731" lon="10.255245"/><rtept lat="59.564699" lon="10.25523"/><rtept lat="59.564652" lon="10.255206"/><rtept lat="59.564625" lon="10.255196"/><rtept lat="59.564597" lon="10.255185"/><rtept lat="59.564546" lon="10.255156"/><rtept lat="59.564512" lon="10.255141"/><rtept lat="59.56446" lon="10.255131"/><rtept lat="59.564428" lon="10.255128"/><rtept lat="59.564387" lon="10.255124"/><rtept lat="59.564366" lon="10.255119"/><rtept lat="59.564339" lon="10.255135"/><rtept lat="59.564316" lon="10.255155"/><rtept lat="59.564304" lon="10.255176"/><rtept lat="59.564297" lon="10.255196"/><rtept lat="59.564284" lon="10.25522"/><rtept lat="59.564286" lon="10.255289"/><rtept lat="59.564286" lon="10.255338"/><rtept lat="59.56429" lon="10.255379"/><rtept lat="59.56429" lon="10.255403"/><rtept lat="59.564293" lon="10.255421"/><rtept lat="59.564294" lon="10.255526"/><rtept lat="59.564261" lon="10.255608"/><rtept lat="59.564262" lon="10.25565"/><rtept lat="59.564262" lon="10.255708"/><rtept lat="59.564254" lon="10.255773"/><rtept lat="59.564247" lon="10.255804"/><rtept lat="59.564201" lon="10.255948"/><rtept lat="59.564254" lon="10.256015"/><rtept lat="59.564296" lon="10.255966"/><rtept lat="59.564313" lon="10.255963"/><rtept lat="59.564347" lon="10.255933"/><rtept lat="59.564421" lon="10.255961"/><rtept lat="59.564459" lon="10.256011"/><rtept lat="59.564482" lon="10.256106"/><rtept lat="59.564485" lon="10.25618"/><rtept lat="59.564489" lon="10.256226"/><rtept lat="59.564498" lon="10.256352"/><rtept lat="59.564514" lon="10.256561"/><rtept lat="59.564499" lon="10.256746"/><rtept lat="59.564436" lon="10.256896"/><rtept lat="59.564448" lon="10.256991"/><rtept lat="59.564453" lon="10.257044"/><rtept lat="59.56444" lon="10.257065"/><rtept lat="59.564437" lon="10.257092"/><rtept lat="59.564436" lon="10.257127"/><rtept lat="59.564437" lon="10.257145"/><rtept lat="59.56442" lon="10.257171"/><rtept lat="59.564414" lon="10.257178"/><rtept lat="59.564415" lon="10.257223"/><rtept lat="59.564415" lon="10.257269"/><rtept lat="59.564435" lon="10.257289"/><rtept lat="59.564455" lon="10.257309"/><rtept lat="59.564454" lon="10.257329"/><rtept lat="59.564453" lon="10.257349"/><rtept lat="59.564449" lon="10.25738"/><rtept lat="59.564444" lon="10.257411"/><rtept lat="59.564435" lon="10.25743"/><rtept lat="59.564426" lon="10.257448"/><rtept lat="59.564417" lon="10.257479"/><rtept lat="59.564407" lon="10.25751"/><rtept lat="59.564405" lon="10.25753"/><rtept lat="59.564403" lon="10.25755"/><rtept lat="59.564398" lon="10.257592"/><rtept lat="59.564394" lon="10.257634"/><rtept lat="59.564389" lon="10.25766"/><rtept lat="59.564393" lon="10.257684"/><rtept lat="59.564404" lon="10.257696"/><rtept lat="59.564422" lon="10.257735"/><rtept lat="59.56445" lon="10.257775"/><rtept lat="59.564513" lon="10.25785"/><rtept lat="59.564574" lon="10.257919"/><rtept lat="59.56461" lon="10.257932"/><rtept lat="59.564645" lon="10.257943"/><rtept lat="59.564675" lon="10.25796"/><rtept lat="59.564707" lon="10.257952"/><rtept lat="59.564737" lon="10.257916"/><rtept lat="59.564809" lon="10.257843"/><rtept lat="59.564884" lon="10.257764"/><rtept lat="59.564934" lon="10.257734"/><rtept lat="59.564974" lon="10.257705"/><rtept lat="59.565011" lon="10.257696"/><rtept lat="59.565056" lon="10.25767"/><rtept lat="59.565081" lon="10.257633"/><rtept lat="59.56513" lon="10.257635"/><rtept lat="59.56541" lon="10.257506"/><rtept lat="59.565636" lon="10.257488"/><rtept lat="59.565932" lon="10.257589"/><rtept lat="59.566374" lon="10.257535"/><rtept lat="59.566557" lon="10.257462"/><rtept lat="59.566748" lon="10.25753"/><rtept lat="59.566881" lon="10.257508"/><rtept lat="59.566913" lon="10.257476"/><rtept lat="59.566904" lon="10.257413"/><rtept lat="59.566875" lon="10.257258"/><rtept lat="59.566864" lon="10.257202"/><rtept lat="59.566822" lon="10.257091"/><rtept lat="59.566801" lon="10.257017"/><rtept lat="59.566779" lon="10.256946"/><rtept lat="59.566718" lon="10.256928"/><rtept lat="59.566672" lon="10.256938"/><rtept lat="59.566635" lon="10.257"/><rtept lat="59.566592" lon="10.257093"/><rtept lat="59.566497" lon="10.257152"/><rtept lat="59.566414" lon="10.2572"/><rtept lat="59.566357" lon="10.257224"/><rtept lat="59.566258" lon="10.257263"/><rtept lat="59.566232" lon="10.257302"/><rtept lat="59.566182" lon="10.257401"/><rtept lat="59.566101" lon="10.257485"/><rtept lat="59.566039" lon="10.257483"/><rtept lat="59.565977" lon="10.257375"/><rtept lat="59.565916" lon="10.257419"/><rtept lat="59.565882" lon="10.257516"/><rtept lat="59.565785" lon="10.257501"/><rtept lat="59.565697" lon="10.257326"/><rtept lat="59.565613" lon="10.257187"/><rtept lat="59.565563" lon="10.25711"/><rtept lat="59.565511" lon="10.256981"/><rtept lat="59.565477" lon="10.256955"/><rtept lat="59.565438" lon="10.256971"/><rtept lat="59.565431" lon="10.257038"/><rtept lat="59.565436" lon="10.257176"/><rtept lat="59.565446" lon="10.257324"/><rtept lat="59.565451" lon="10.257385"/><rtept lat="59.565438" lon="10.257406"/><rtept lat="59.565409" lon="10.257421"/><rtept lat="59.56537" lon="10.257437"/><rtept lat="59.565307" lon="10.257429"/><rtept lat="59.565226" lon="10.257371"/><rtept lat="59.565175" lon="10.25734"/><rtept lat="59.565023" lon="10.257311"/><rtept lat="59.564951" lon="10.257344"/><rtept lat="59.564894" lon="10.257373"/><rtept lat="59.564854" lon="10.257386"/><rtept lat="59.564819" lon="10.2574"/><rtept lat="59.564783" lon="10.257386"/><rtept lat="59.564756" lon="10.257455"/><rtept lat="59.564723" lon="10.257408"/><rtept lat="59.564684" lon="10.257478"/><rtept lat="59.564661" lon="10.257481"/><rtept lat="59.564662" lon="10.257411"/><rtept lat="59.564641" lon="10.257397"/><rtept lat="59.564603" lon="10.257409"/><rtept lat="59.5646" lon="10.257389"/><rtept lat="59.564592" lon="10.257349"/><rtept lat="59.564592" lon="10.257305"/><rtept lat="59.564605" lon="10.257306"/><rtept lat="59.564634" lon="10.257307"/><rtept lat="59.564656" lon="10.257304"/><rtept lat="59.564685" lon="10.257296"/><rtept lat="59.564733" lon="10.257285"/><rtept lat="59.564781" lon="10.25728"/><rtept lat="59.564828" lon="10.257271"/><rtept lat="59.56489" lon="10.257262"/><rtept lat="59.564936" lon="10.257248"/><rtept lat="59.564992" lon="10.257244"/><rtept lat="59.565033" lon="10.257238"/><rtept lat="59.565061" lon="10.257244"/><rtept lat="59.565095" lon="10.25726"/><rtept lat="59.565124" lon="10.257265"/><rtept lat="59.565154" lon="10.257275"/><rtept lat="59.565183" lon="10.257272"/><rtept lat="59.56521" lon="10.257266"/><rtept lat="59.565221" lon="10.257245"/><rtept lat="59.565233" lon="10.257227"/><rtept lat="59.565235" lon="10.257207"/><rtept lat="59.565249" lon="10.257152"/><rtept lat="59.56525" lon="10.257126"/><rtept lat="59.565252" lon="10.25701"/><rtept lat="59.565244" lon="10.256942"/><rtept lat="59.565238" lon="10.25689"/><rtept lat="59.565229" lon="10.256803"/><rtept lat="59.565212" lon="10.25667"/><rtept lat="59.565188" lon="10.256536"/><rtept lat="59.565167" lon="10.256434"/><rtept lat="59.565106" lon="10.256226"/><rtept lat="59.565101" lon="10.256211"/><rtept lat="59.565102" lon="10.256192"/></rte></gpx>