<gpx xmlns="http://www.topografix.com/GPX/1/1" xmlns:xsi="http://www.w3.org/2001/XMLSchema-instance" xsi:schemaLocation="http://www.topografix.com/GPX/1/1 http://www.topografix.com/GPX/1/1/gpx.xsd" version="1.1" creator="OpenLayers"><wpt lat="59.565091" lon="10.256169"><ele>25.5</ele><name>Starten på Grønn løype</name></wpt><wpt lat="59.565098" lon="10.256165"><ele>25.5</ele><name>Slutten på Grønn løype</name></wpt><rte><name>Grønn løype</name><rtept lat="59.565103" lon="10.256184"/><rtept lat="59.565096" lon="10.256095"/><rtept lat="59.565092" lon="10.256044"/><rtept lat="59.565066" lon="10.255692"/><rtept lat="59.565039" lon="10.255636"/><rtept lat="59.564998" lon="10.255522"/><rtept lat="59.564971" lon="10.255466"/><rtept lat="59.564917" lon="10.255376"/><rtept lat="59.564895" lon="10.255356"/><rtept lat="59.564792" lon="10.255286"/><rtept lat="59.564743" lon="10.255265"/><rtept lat="59.564653" lon="10.25522"/><rtept lat="59.564548" lon="10.25517"/><rtept lat="59.564513" lon="10.255154"/><rtept lat="59.564367" lon="10.255132"/><rtept lat="59.564317" lon="10.255168"/><rtept lat="59.564298" lon="10.25521"/><rtept lat="59.564312" lon="10.255256"/><rtept lat="59.564329" lon="10.255284"/><rtept lat="59.564394" lon="10.25531"/><rtept lat="59.564445" lon="10.255373"/><rtept lat="59.564483" lon="10.255502"/><rtept lat="59.5645" lon="10.255566"/><rtept lat="59.564505" lon="10.255615"/><rtept lat="59.564502" lon="10.255669"/><rtept lat="59.564504" lon="10.255741"/><rtept lat="59.564508" lon="10.25584"/><rtept lat="59.564508" lon="10.255949"/><rtept lat="59.564509" lon="10.25604"/><rtept lat="59.564514" lon="10.256144"/><rtept lat="59.564514" lon="10.256236"/><rtept lat="59.564523" lon="10.256337"/><rtept lat="59.564526" lon="10.256436"/><rtept lat="59.564528" lon="10.256524"/><rtept lat="59.564532" lon="10.256614"/><rtept lat="59.564529" lon="10.256682"/><rtept lat="59.564533" lon="10.256756"/><rtept lat="59.564534" lon="10.25683"/><rtept lat="59.564537" lon="10.256958"/><rtept lat="59.564528" lon="10.256978"/><rtept lat="59.564518" lon="10.256988"/><rtept lat="59.564505" lon="10.257"/><rtept lat="59.564487" lon="10.257014"/><rtept lat="59.564478" lon="10.257024"/><rtept lat="59.564468" lon="10.257036"/><rtept lat="59.564454" lon="10.257058"/><rtept lat="59.564441" lon="10.257078"/><rtept lat="59.564439" lon="10.257118"/><rtept lat="59.564438" lon="10.257158"/><rtept lat="59.564415" lon="10.257192"/><rtept lat="59.564416" lon="10.257282"/><rtept lat="59.5644152" lon="10.2573703"/><rtept lat="59.564426" lon="10.257448"/><rtept lat="59.564405" lon="10.25753"/><rtept lat="59.5644161" lon="10.25759"/><rtept lat="59.5644192" lon="10.2576554"/><rtept lat="59.5644601" lon="10.2576993"/><rtept lat="59.5644769" lon="10.2577414"/><rtept lat="59.5645245" lon="10.2578028"/><rtept lat="59.564561" lon="10.2578348"/><rtept lat="59.564628" lon="10.25787"/><rtept lat="59.564668" lon="10.257908"/><rtept lat="59.5647321" lon="10.2578948"/><rtept lat="59.5647705" lon="10.2578663"/><rtept lat="59.5648995" lon="10.2577542"/><rtept lat="59.564987" lon="10.2576914"/><rtept lat="59.565072" lon="10.2576192"/><rtept lat="59.5651093" lon="10.2575719"/><rtept lat="59.5651379" lon="10.2575338"/><rtept lat="59.5651212" lon="10.2574528"/><rtept lat="59.5651082" lon="10.257412"/><rtept lat="59.565095" lon="10.257363"/><rtept lat="59.565076" lon="10.257338"/><rtept lat="59.565025" lon="10.257325"/><rtept lat="59.56501" lon="10.257254"/><rtept lat="59.5650493" lon="10.2572224"/><rtept lat="59.5651223" lon="10.2571841"/><rtept lat="59.5651644" lon="10.2571747"/><rtept lat="59.5651847" lon="10.2571573"/><rtept lat="59.5652167" lon="10.2571435"/><rtept lat="59.5652307" lon="10.2571285"/><rtept lat="59.5652534" lon="10.2570804"/><rtept lat="59.565253" lon="10.257024"/><rtept lat="59.565245" lon="10.256956"/><rtept lat="59.56523" lon="10.256816"/><rtept lat="59.565224" lon="10.256775"/><rtept lat="59.56521" lon="10.256656"/><rtept lat="59.565189" lon="10.256549"/><rtept lat="59.565168" lon="10.256448"/><rtept lat="59.565146" lon="10.256381"/><rtept lat="59.565123" lon="10.25631"/><rtept lat="59.565101" lon="10.256212"/><rtept lat="59.565103" lon="10.256234"/><rtept lat="59.5651" lon="10.25621"/><rtept lat="59.565098" lon="10.256186"/></rte></gpx>