<gpx xmlns="http://www.topografix.com/GPX/1/1" xmlns:xsi="http://www.w3.org/2001/XMLSchema-instance" xsi:schemaLocation="http://www.topografix.com/GPX/1/1 http://www.topografix.com/GPX/1/1/gpx.xsd" version="1.1" creator="OpenLayers"><wpt lat="59.565091" lon="10.256169"><ele>25.5</ele><name>Starten på Grønn løype</name></wpt><wpt lat="59.565098" lon="10.256165"><ele>25.5</ele><name>Slutten på Grønn løype</name></wpt><rte><name>Grønn løype</name><rtept lat="59.565103" lon="10.256184"/><rtept lat="59.565096" lon="10.256095"/><rtept lat="59.565092" lon="10.256044"/><rtept lat="59.565066" lon="10.255692"/><rtept lat="59.565039" lon="10.255636"/><rtept lat="59.564998" lon="10.255522"/><rtept lat="59.564971" lon="10.255466"/><rtept lat="59.564917" lon="10.255376"/><rtept lat="59.564895" lon="10.255356"/><rtept lat="59.564792" lon="10.255286"/><rtept lat="59.564743" lon="10.255265"/><rtept lat="59.564653" lon="10.25522"/><rtept lat="59.564548" lon="10.25517"/><rtept lat="59.564513" lon="10.255154"/><rtept lat="59.564367" lon="10.255132"/><rtept lat="59.564317" lon="10.255168"/><rtept lat="59.564298" lon="10.25521"/><rtept lat="59.564312" lon="10.255256"/><rtept lat="59.564329" lon="10.255284"/><rtept lat="59.564394" lon="10.25531"/><rtept lat="59.564445" lon="10.255373"/><rtept lat="59.564483" lon="10.255502"/><rtept lat="59.5645" lon="10.255566"/><rtept lat="59.564505" lon="10.255615"/><rtept lat="59.564502" lon="10.255669"/><rtept lat="59.564504" lon="10.255741"/><rtept lat="59.564508" lon="10.25584"/><rtept lat="59.564508" lon="10.255949"/><rtept lat="59.564509" lon="10.25604"/><rtept lat="59.564514" lon="10.256144"/><rtept lat="59.564514" lon="10.256236"/><rtept lat="59.564523" lon="10.256337"/><rtept lat="59.564526" lon="10.256436"/><rtept lat="59.564528" lon="10.256524"/><rtept lat="59.564532" lon="10.256614"/><rtept lat="59.564529" lon="10.256682"/><rtept lat="59.564533" lon="10.256756"/><rtept lat="59.564534" lon="10.25683"/><rtept lat="59.564537" lon="10.256958"/><rtept lat="59.564528" lon="10.256978"/><rtept lat="59.564518" lon="10.256988"/><rtept lat="59.564505" lon="10.257"/><rtept lat="59.564487" lon="10.257014"/><rtept lat="59.564478" lon="10.257024"/><rtept lat="59.564468" lon="10.257036"/><rtept lat="59.564454" lon="10.257058"/><rtept lat="59.564441" lon="10.257078"/><rtept lat="59.564439" lon="10.257118"/><rtept lat="59.564438" lon="10.257158"/><rtept lat="59.564415" lon="10.257192"/><rtept lat="59.564416" lon="10.257282"/><rtept lat="59.564456" lon="10.257322"/><rtept lat="59.56445" lon="10.257394"/><rtept lat="59.564436" lon="10.257444"/><rtept lat="59.564426" lon="10.257521"/><rtept lat="59.564446" lon="10.257598"/><rtept lat="59.564462" lon="10.257646"/><rtept lat="59.564486" lon="10.257668"/><rtept lat="59.564528" lon="10.257698"/><rtept lat="59.56457" lon="10.257728"/><rtept lat="59.564589" lon="10.25778"/><rtept lat="59.564561" lon="10.257812"/><rtept lat="59.564628" lon="10.25787"/><rtept lat="59.564668" lon="10.257908"/><rtept lat="59.564728" lon="10.257872"/><rtept lat="59.564744" lon="10.257814"/><rtept lat="59.564726" lon="10.25776"/><rtept lat="59.564642" lon="10.257718"/><rtept lat="59.56465" lon="10.257674"/><rtept lat="59.564625" lon="10.257638"/><rtept lat="59.564589" lon="10.257656"/><rtept lat="59.564592" lon="10.257612"/><rtept lat="59.564639" lon="10.257618"/><rtept lat="59.564676" lon="10.257656"/><rtept lat="59.564764" lon="10.25763"/><rtept lat="59.564763" lon="10.257678"/><rtept lat="59.56477" lon="10.257722"/><rtept lat="59.564799" lon="10.257732"/><rtept lat="59.564826" lon="10.257698"/><rtept lat="59.564846" lon="10.257641"/><rtept lat="59.564874" lon="10.257534"/><rtept lat="59.564925" lon="10.2575"/><rtept lat="59.56496" lon="10.257483"/><rtept lat="59.565017" lon="10.25747"/><rtept lat="59.565074" lon="10.257448"/><rtept lat="59.565094" lon="10.257434"/><rtept lat="59.5651" lon="10.257412"/><rtept lat="59.565095" lon="10.257363"/><rtept lat="59.565076" lon="10.257338"/><rtept lat="59.565025" lon="10.257325"/><rtept lat="59.564973" lon="10.257349"/><rtept lat="59.564916" lon="10.25738"/><rtept lat="59.564821" lon="10.257413"/><rtept lat="59.564784" lon="10.2574"/><rtept lat="59.564772" lon="10.257434"/><rtept lat="59.564757" lon="10.257468"/><rtept lat="59.564724" lon="10.257422"/><rtept lat="59.564686" lon="10.257492"/><rtept lat="59.564662" lon="10.257495"/><rtept lat="59.564663" lon="10.257424"/><rtept lat="59.564642" lon="10.25741"/><rtept lat="59.564604" lon="10.257423"/><rtept lat="59.564598" lon="10.257391"/><rtept lat="59.564593" lon="10.257362"/><rtept lat="59.564593" lon="10.257318"/><rtept lat="59.564657" lon="10.257317"/><rtept lat="59.564721" lon="10.257302"/><rtept lat="59.564766" lon="10.257298"/><rtept lat="59.564839" lon="10.257289"/><rtept lat="59.564891" lon="10.257276"/><rtept lat="59.564961" lon="10.257261"/><rtept lat="59.564979" lon="10.257258"/><rtept lat="59.56501" lon="10.257254"/><rtept lat="59.565052" lon="10.25726"/><rtept lat="59.565125" lon="10.257278"/><rtept lat="59.565163" lon="10.25729"/><rtept lat="59.565184" lon="10.257286"/><rtept lat="59.565197" lon="10.257283"/><rtept lat="59.565211" lon="10.25728"/><rtept lat="59.565222" lon="10.257259"/><rtept lat="59.565235" lon="10.257246"/><rtept lat="59.565237" lon="10.257234"/><rtept lat="59.565246" lon="10.257197"/><rtept lat="59.56525" lon="10.257166"/><rtept lat="59.565253" lon="10.257024"/><rtept lat="59.565245" lon="10.256956"/><rtept lat="59.56523" lon="10.256816"/><rtept lat="59.565224" lon="10.256775"/><rtept lat="59.56521" lon="10.256656"/><rtept lat="59.565189" lon="10.256549"/><rtept lat="59.565168" lon="10.256448"/><rtept lat="59.565146" lon="10.256381"/><rtept lat="59.565123" lon="10.25631"/><rtept lat="59.565101" lon="10.256212"/><rtept lat="59.565103" lon="10.256234"/><rtept lat="59.5651" lon="10.25621"/><rtept lat="59.565098" lon="10.256186"/></rte></gpx>