<gpx xmlns="http://www.topografix.com/GPX/1/1" xmlns:xsi="http://www.w3.org/2001/XMLSchema-instance" xsi:schemaLocation="http://www.topografix.com/GPX/1/1 http://www.topografix.com/GPX/1/1/gpx.xsd" version="1.1" creator="OpenLayers"><wpt lat="59.5650996" lon="10.2562023"><name>Starten på XCC</name></wpt><wpt lat="59.5651393" lon="10.256257"><name>Slutten på XCC</name></wpt><rte><name>XCC</name><rtept lat="59.5651032" lon="10.2562134"/><rtept lat="59.5651012" lon="10.2561904"/><rtept lat="59.5650969" lon="10.2561666"/><rtept lat="59.5650926" lon="10.2561429"/><rtept lat="59.5650825" lon="10.2560187"/><rtept lat="59.5650724" lon="10.2558945"/><rtept lat="59.5650604" lon="10.2557741"/><rtept lat="59.5650484" lon="10.2556537"/><rtept lat="59.565034" lon="10.2555997"/><rtept lat="59.5650196" lon="10.2555456"/><rtept lat="59.5649821" lon="10.2554659"/><rtept lat="59.5649446" lon="10.2553863"/><rtept lat="59.5648894" lon="10.2553427"/><rtept lat="59.5648341" lon="10.255299"/><rtept lat="59.5647626" lon="10.2552611"/><rtept lat="59.564691" lon="10.2552232"/><rtept lat="59.5646257" lon="10.2551871"/><rtept lat="59.5645603" lon="10.2551511"/><rtept lat="59.5644638" lon="10.2551312"/><rtept lat="59.5643672" lon="10.2551113"/><rtept lat="59.5642159" lon="10.2549679"/><rtept lat="59.5640646" lon="10.2548246"/><rtept lat="59.5640246" lon="10.2548046"/><rtept lat="59.5639746" lon="10.2547746"/><rtept lat="59.5639246" lon="10.2547546"/><rtept lat="59.5638746" lon="10.2547346"/><rtept lat="59.5638046" lon="10.2547046"/><rtept lat="59.5637346" lon="10.2546746"/><rtept lat="59.5636546" lon="10.2546446"/><rtept lat="59.5635746" lon="10.2546346"/><rtept lat="59.5635046" lon="10.2546146"/><rtept lat="59.5634346" lon="10.2546046"/><rtept lat="59.5633546" lon="10.2546146"/><rtept lat="59.5632946" lon="10.2546246"/><rtept lat="59.5632346" lon="10.2546446"/><rtept lat="59.5631746" lon="10.2546646"/><rtept lat="59.5631146" lon="10.2546746"/><rtept lat="59.5630646" lon="10.2546946"/><rtept lat="59.5630146" lon="10.2547246"/><rtept lat="59.5629746" lon="10.2547446"/><rtept lat="59.5629246" lon="10.2547646"/><rtept lat="59.5628846" lon="10.2547846"/><rtept lat="59.5628646" lon="10.2548046"/><rtept lat="59.5628346" lon="10.2548146"/><rtept lat="59.5628146" lon="10.2548146"/><rtept lat="59.5627846" lon="10.2548346"/><rtept lat="59.5627546" lon="10.2548446"/><rtept lat="59.5627246" lon="10.2548546"/><rtept lat="59.5626846" lon="10.2548746"/><rtept lat="59.5626346" lon="10.2548846"/><rtept lat="59.5625946" lon="10.2548946"/><rtept lat="59.5625446" lon="10.2549046"/><rtept lat="59.5625046" lon="10.2549146"/><rtept lat="59.5624646" lon="10.2549246"/><rtept lat="59.5624431" lon="10.2549351"/><rtept lat="59.5624439" lon="10.2548781"/><rtept lat="59.5624447" lon="10.2548211"/><rtept lat="59.5624435" lon="10.2547761"/><rtept lat="59.5624423" lon="10.254731"/><rtept lat="59.5624401" lon="10.2546642"/><rtept lat="59.5624379" lon="10.2545973"/><rtept lat="59.5624379" lon="10.2545224"/><rtept lat="59.5624379" lon="10.2544475"/><rtept lat="59.5624452" lon="10.254405"/><rtept lat="59.5624524" lon="10.2543627"/><rtept lat="59.562461" lon="10.2543198"/><rtept lat="59.5624697" lon="10.2542769"/><rtept lat="59.5624771" lon="10.2542242"/><rtept lat="59.5624845" lon="10.2541716"/><rtept lat="59.5624918" lon="10.2541157"/><rtept lat="59.562499" lon="10.2540597"/><rtept lat="59.5625066" lon="10.2540121"/><rtept lat="59.5625143" lon="10.2539644"/><rtept lat="59.5625173" lon="10.2539492"/><rtept lat="59.5625203" lon="10.2539341"/><rtept lat="59.5625213" lon="10.2539132"/><rtept lat="59.5625223" lon="10.2538923"/><rtept lat="59.5625207" lon="10.2538791"/><rtept lat="59.5625191" lon="10.2538658"/><rtept lat="59.5625179" lon="10.2538613"/><rtept lat="59.5625167" lon="10.2538568"/><rtept lat="59.5625112" lon="10.2538542"/><rtept lat="59.5625057" lon="10.2538516"/><rtept lat="59.5625002" lon="10.253852"/><rtept lat="59.5624946" lon="10.2538525"/><rtept lat="59.5624866" lon="10.2538646"/><rtept lat="59.5624785" lon="10.2538767"/><rtept lat="59.5624669" lon="10.2539188"/><rtept lat="59.5624411" lon="10.2539282"/><rtept lat="59.5624278" lon="10.2539225"/><rtept lat="59.5624195" lon="10.2539178"/><rtept lat="59.5624068" lon="10.2539212"/><rtept lat="59.5624014" lon="10.2539171"/><rtept lat="59.5623989" lon="10.2539255"/><rtept lat="59.5623977" lon="10.2539568"/><rtept lat="59.5623985" lon="10.2539471"/><rtept lat="59.5623983" lon="10.253934"/><rtept lat="59.5624" lon="10.2539691"/><rtept lat="59.562401" lon="10.2540023"/><rtept lat="59.5624098" lon="10.2540583"/><rtept lat="59.5624234" lon="10.2540858"/><rtept lat="59.5624195" lon="10.2541078"/><rtept lat="59.5624139" lon="10.2541494"/><rtept lat="59.5624102" lon="10.2541769"/><rtept lat="59.562409" lon="10.2541992"/><rtept lat="59.562404" lon="10.2542309"/><rtept lat="59.5623976" lon="10.2542508"/><rtept lat="59.5623969" lon="10.2542717"/><rtept lat="59.5623961" lon="10.2542925"/><rtept lat="59.5623952" lon="10.2543027"/><rtept lat="59.5623942" lon="10.2543129"/><rtept lat="59.5623909" lon="10.2543231"/><rtept lat="59.5623875" lon="10.2543333"/><rtept lat="59.5623811" lon="10.2543423"/><rtept lat="59.5623748" lon="10.2543513"/><rtept lat="59.5623653" lon="10.2543544"/><rtept lat="59.5623558" lon="10.2543575"/><rtept lat="59.5623453" lon="10.2543575"/><rtept lat="59.5623349" lon="10.2543575"/><rtept lat="59.5623193" lon="10.254352"/><rtept lat="59.5623037" lon="10.2543466"/><rtept lat="59.562283" lon="10.2543518"/><rtept lat="59.5622624" lon="10.254357"/><rtept lat="59.5622532" lon="10.2543636"/><rtept lat="59.5622441" lon="10.2543703"/><rtept lat="59.5622401" lon="10.2543795"/><rtept lat="59.5622362" lon="10.2543888"/><rtept lat="59.5622275" lon="10.254402"/><rtept lat="59.5622189" lon="10.2544152"/><rtept lat="59.5622218" lon="10.2544299"/><rtept lat="59.5622246" lon="10.2544446"/><rtept lat="59.5622233" lon="10.2544539"/><rtept lat="59.562222" lon="10.2544631"/><rtept lat="59.5622226" lon="10.2544804"/><rtept lat="59.5622232" lon="10.2544977"/><rtept lat="59.5622279" lon="10.2545025"/><rtept lat="59.5622326" lon="10.2545072"/><rtept lat="59.5622334" lon="10.2545165"/><rtept lat="59.5622342" lon="10.2545257"/><rtept lat="59.5622392" lon="10.2545383"/><rtept lat="59.5622441" lon="10.2545508"/><rtept lat="59.5622507" lon="10.2545771"/><rtept lat="59.5622573" lon="10.2546035"/><rtept lat="59.5622549" lon="10.2546103"/><rtept lat="59.5622525" lon="10.2546172"/><rtept lat="59.5622514" lon="10.2546286"/><rtept lat="59.5622503" lon="10.25464"/><rtept lat="59.5622487" lon="10.2546461"/><rtept lat="59.562247" lon="10.2546523"/><rtept lat="59.5622422" lon="10.2546566"/><rtept lat="59.5622374" lon="10.2546608"/><rtept lat="59.562234" lon="10.2546644"/><rtept lat="59.5622306" lon="10.2546679"/><rtept lat="59.5622273" lon="10.2546696"/><rtept lat="59.5622239" lon="10.2546713"/><rtept lat="59.5622209" lon="10.2546762"/><rtept lat="59.5622179" lon="10.2546812"/><rtept lat="59.5622089" lon="10.2546864"/><rtept lat="59.5621999" lon="10.2546917"/><rtept lat="59.5621908" lon="10.2546857"/><rtept lat="59.5621816" lon="10.2546798"/><rtept lat="59.5621776" lon="10.2546805"/><rtept lat="59.5621735" lon="10.2546812"/><rtept lat="59.5621658" lon="10.2546614"/><rtept lat="59.5621581" lon="10.2546416"/><rtept lat="59.5621547" lon="10.2546174"/><rtept lat="59.5621513" lon="10.2545933"/><rtept lat="59.5621509" lon="10.2545859"/><rtept lat="59.5621504" lon="10.2545786"/><rtept lat="59.5621494" lon="10.2545725"/><rtept lat="59.5621484" lon="10.2545665"/><rtept lat="59.5621462" lon="10.2545413"/><rtept lat="59.562144" lon="10.2545162"/><rtept lat="59.5621445" lon="10.2544726"/><rtept lat="59.562145" lon="10.254429"/><rtept lat="59.5621419" lon="10.2543912"/><rtept lat="59.5621387" lon="10.2543533"/><rtept lat="59.5621442" lon="10.2543257"/><rtept lat="59.5621496" lon="10.254298"/><rtept lat="59.5621574" lon="10.2542793"/><rtept lat="59.5621652" lon="10.2542605"/><rtept lat="59.5621738" lon="10.254231"/><rtept lat="59.5621824" lon="10.2542015"/><rtept lat="59.5621854" lon="10.2541795"/><rtept lat="59.5621941" lon="10.2541716"/><rtept lat="59.5622104" lon="10.2541036"/><rtept lat="59.5622325" lon="10.2540496"/><rtept lat="59.5622371" lon="10.2540241"/><rtept lat="59.5622417" lon="10.2539986"/><rtept lat="59.5622544" lon="10.2539577"/><rtept lat="59.5622671" lon="10.2539168"/><rtept lat="59.5622783" lon="10.253896"/><rtept lat="59.5622896" lon="10.2538752"/><rtept lat="59.5622984" lon="10.2538337"/><rtept lat="59.5623072" lon="10.2537921"/><rtept lat="59.5623235" lon="10.2537549"/><rtept lat="59.5623398" lon="10.2537177"/><rtept lat="59.5623414" lon="10.2537049"/><rtept lat="59.5623429" lon="10.2536922"/><rtept lat="59.5623478" lon="10.2536727"/><rtept lat="59.5623527" lon="10.2536533"/><rtept lat="59.5623655" lon="10.2536171"/><rtept lat="59.5623782" lon="10.2535809"/><rtept lat="59.5623905" lon="10.2535713"/><rtept lat="59.5624028" lon="10.2535617"/><rtept lat="59.5624143" lon="10.2535381"/><rtept lat="59.5624258" lon="10.2535145"/><rtept lat="59.56243" lon="10.253487"/><rtept lat="59.5624343" lon="10.2534595"/><rtept lat="59.5624434" lon="10.2534444"/><rtept lat="59.5624526" lon="10.2534293"/><rtept lat="59.5624631" lon="10.253427"/><rtept lat="59.5624737" lon="10.2534246"/><rtept lat="59.562482" lon="10.2534273"/><rtept lat="59.5624903" lon="10.25343"/><rtept lat="59.5624941" lon="10.2534116"/><rtept lat="59.5624978" lon="10.2533931"/><rtept lat="59.5625051" lon="10.2533713"/><rtept lat="59.5625124" lon="10.2533495"/><rtept lat="59.5625092" lon="10.2533412"/><rtept lat="59.5625059" lon="10.2533328"/><rtept lat="59.5625012" lon="10.2533207"/><rtept lat="59.5624964" lon="10.2533086"/><rtept lat="59.5624859" lon="10.2532982"/><rtept lat="59.5624754" lon="10.2532878"/><rtept lat="59.5624784" lon="10.2532694"/><rtept lat="59.5624815" lon="10.253251"/><rtept lat="59.5625044" lon="10.2531896"/><rtept lat="59.5625273" lon="10.2531283"/><rtept lat="59.562586" lon="10.2529665"/><rtept lat="59.5626446" lon="10.2528047"/><rtept lat="59.5626946" lon="10.2526847"/><rtept lat="59.5627646" lon="10.2526147"/><rtept lat="59.5628744" lon="10.2526029"/><rtept lat="59.5629842" lon="10.2525911"/><rtept lat="59.5631044" lon="10.2524529"/><rtept lat="59.5632246" lon="10.2523147"/><rtept lat="59.5632646" lon="10.2522947"/><rtept lat="59.5633046" lon="10.2522847"/><rtept lat="59.5633446" lon="10.2522747"/><rtept lat="59.5633946" lon="10.2522747"/><rtept lat="59.5634346" lon="10.2522747"/><rtept lat="59.5634746" lon="10.2522847"/><rtept lat="59.5635146" lon="10.2522947"/><rtept lat="59.5635446" lon="10.2523047"/><rtept lat="59.5635846" lon="10.2523247"/><rtept lat="59.5636656" lon="10.252356"/><rtept lat="59.5637465" lon="10.2523873"/><rtept lat="59.5638117" lon="10.2524838"/><rtept lat="59.5638769" lon="10.2525804"/><rtept lat="59.5640135" lon="10.2527467"/><rtept lat="59.5641501" lon="10.252913"/><rtept lat="59.5642973" lon="10.2529839"/><rtept lat="59.5644446" lon="10.2530547"/><rtept lat="59.5644746" lon="10.2530947"/><rtept lat="59.5644946" lon="10.2531247"/><rtept lat="59.5645146" lon="10.2531647"/><rtept lat="59.5645246" lon="10.2532147"/><rtept lat="59.5645446" lon="10.2532547"/><rtept lat="59.5645646" lon="10.2533047"/><rtept lat="59.5645746" lon="10.2533547"/><rtept lat="59.5645946" lon="10.2534047"/><rtept lat="59.5646146" lon="10.2534547"/><rtept lat="59.5646346" lon="10.2534947"/><rtept lat="59.5646546" lon="10.2535347"/><rtept lat="59.5646846" lon="10.2535747"/><rtept lat="59.5647046" lon="10.2536147"/><rtept lat="59.5647246" lon="10.2536647"/><rtept lat="59.5647446" lon="10.2537047"/><rtept lat="59.5647746" lon="10.2537447"/><rtept lat="59.5647946" lon="10.2537847"/><rtept lat="59.5648246" lon="10.2538247"/><rtept lat="59.5648346" lon="10.2538647"/><rtept lat="59.5648546" lon="10.2539047"/><rtept lat="59.5648746" lon="10.2539447"/><rtept lat="59.5648946" lon="10.2539847"/><rtept lat="59.5649046" lon="10.2540147"/><rtept lat="59.5649146" lon="10.2540347"/><rtept lat="59.5649346" lon="10.2540547"/><rtept lat="59.5649446" lon="10.2540847"/><rtept lat="59.5649646" lon="10.2541147"/><rtept lat="59.5649846" lon="10.2541347"/><rtept lat="59.5650046" lon="10.2541547"/><rtept lat="59.5650146" lon="10.2541647"/><rtept lat="59.5650446" lon="10.2541847"/><rtept lat="59.5650646" lon="10.2542047"/><rtept lat="59.5650846" lon="10.2542147"/><rtept lat="59.5651046" lon="10.2542347"/><rtept lat="59.5651246" lon="10.2542447"/><rtept lat="59.5651446" lon="10.2542647"/><rtept lat="59.5651746" lon="10.2542847"/><rtept lat="59.5651946" lon="10.2543147"/><rtept lat="59.5652146" lon="10.2543347"/><rtept lat="59.5652346" lon="10.2543647"/><rtept lat="59.5652546" lon="10.2543947"/><rtept lat="59.5652746" lon="10.2544246"/><rtept lat="59.5652946" lon="10.2544446"/><rtept lat="59.5653246" lon="10.2544646"/><rtept lat="59.5653446" lon="10.2544846"/><rtept lat="59.5653746" lon="10.2545046"/><rtept lat="59.5654046" lon="10.2545246"/><rtept lat="59.5654246" lon="10.2545346"/><rtept lat="59.5654546" lon="10.2545546"/><rtept lat="59.5654846" lon="10.2545646"/><rtept lat="59.5655146" lon="10.2545746"/><rtept lat="59.5655546" lon="10.2545846"/><rtept lat="59.5655846" lon="10.2545946"/><rtept lat="59.5656146" lon="10.2545946"/><rtept lat="59.5656446" lon="10.2546046"/><rtept lat="59.5656746" lon="10.2546046"/><rtept lat="59.5656946" lon="10.2546046"/><rtept lat="59.5657246" lon="10.2546046"/><rtept lat="59.5657546" lon="10.2546046"/><rtept lat="59.5657846" lon="10.2546046"/><rtept lat="59.5658146" lon="10.2546046"/><rtept lat="59.5658446" lon="10.2546046"/><rtept lat="59.5658846" lon="10.2546046"/><rtept lat="59.5659246" lon="10.2545946"/><rtept lat="59.5659546" lon="10.2545946"/><rtept lat="59.5659846" lon="10.2545846"/><rtept lat="59.5660046" lon="10.2545746"/><rtept lat="59.5660346" lon="10.2545746"/><rtept lat="59.5660546" lon="10.2545646"/><rtept lat="59.5660746" lon="10.2545446"/><rtept lat="59.5661046" lon="10.2545246"/><rtept lat="59.5661346" lon="10.2544946"/><rtept lat="59.5661546" lon="10.2544846"/><rtept lat="59.5661746" lon="10.2544646"/><rtept lat="59.5661946" lon="10.2544446"/><rtept lat="59.5662246" lon="10.2544146"/><rtept lat="59.5662446" lon="10.2543947"/><rtept lat="59.5662546" lon="10.2543647"/><rtept lat="59.5662746" lon="10.2543547"/><rtept lat="59.5662946" lon="10.2543447"/><rtept lat="59.5663146" lon="10.2543347"/><rtept lat="59.5663346" lon="10.2543347"/><rtept lat="59.5663546" lon="10.2543247"/><rtept lat="59.5663746" lon="10.2543247"/><rtept lat="59.5664046" lon="10.2543247"/><rtept lat="59.5664346" lon="10.2543347"/><rtept lat="59.5664546" lon="10.2543347"/><rtept lat="59.5664746" lon="10.2543447"/><rtept lat="59.5664946" lon="10.2543647"/><rtept lat="59.5665046" lon="10.2543947"/><rtept lat="59.5665246" lon="10.2544246"/><rtept lat="59.5665546" lon="10.2544646"/><rtept lat="59.5665746" lon="10.2545046"/><rtept lat="59.5665846" lon="10.2545546"/><rtept lat="59.5665946" lon="10.2546146"/><rtept lat="59.5666146" lon="10.2546746"/><rtept lat="59.5666246" lon="10.2547346"/><rtept lat="59.5666246" lon="10.2547946"/><rtept lat="59.5666346" lon="10.2548546"/><rtept lat="59.5666446" lon="10.2549146"/><rtept lat="59.5666646" lon="10.2549646"/><rtept lat="59.5666746" lon="10.2550246"/><rtept lat="59.5666846" lon="10.2550846"/><rtept lat="59.5667046" lon="10.2551446"/><rtept lat="59.5667246" lon="10.2551946"/><rtept lat="59.5667346" lon="10.2552546"/><rtept lat="59.5667546" lon="10.2553146"/><rtept lat="59.5667746" lon="10.2553746"/><rtept lat="59.5667846" lon="10.2554346"/><rtept lat="59.5667946" lon="10.2555046"/><rtept lat="59.5668046" lon="10.2555646"/><rtept lat="59.5668146" lon="10.2556246"/><rtept lat="59.5668246" lon="10.2556946"/><rtept lat="59.5668346" lon="10.2557546"/><rtept lat="59.5668346" lon="10.2558145"/><rtept lat="59.5668446" lon="10.2558845"/><rtept lat="59.5668546" lon="10.2559445"/><rtept lat="59.5668646" lon="10.2560045"/><rtept lat="59.5668746" lon="10.2560745"/><rtept lat="59.5668846" lon="10.2561445"/><rtept lat="59.5668846" lon="10.2562045"/><rtept lat="59.5668946" lon="10.2562645"/><rtept lat="59.5669146" lon="10.2563245"/><rtept lat="59.5669246" lon="10.2563745"/><rtept lat="59.5669446" lon="10.2564245"/><rtept lat="59.5669446" lon="10.2564645"/><rtept lat="59.5669546" lon="10.2565146"/><rtept lat="59.5669546" lon="10.2565546"/><rtept lat="59.5669546" lon="10.2565846"/><rtept lat="59.5669546" lon="10.2566246"/><rtept lat="59.5669546" lon="10.2566446"/><rtept lat="59.5669546" lon="10.2566746"/><rtept lat="59.5669646" lon="10.2567046"/><rtept lat="59.5669646" lon="10.2567346"/><rtept lat="59.5669646" lon="10.2567646"/><rtept lat="59.5669646" lon="10.2567946"/><rtept lat="59.5669546" lon="10.2568246"/><rtept lat="59.5669546" lon="10.2568546"/><rtept lat="59.5669546" lon="10.2568846"/><rtept lat="59.5669546" lon="10.2569046"/><rtept lat="59.5669546" lon="10.2569446"/><rtept lat="59.5669546" lon="10.2569746"/><rtept lat="59.5669646" lon="10.2570146"/><rtept lat="59.5669646" lon="10.2570446"/><rtept lat="59.5669646" lon="10.2570646"/><rtept lat="59.5669646" lon="10.2570946"/><rtept lat="59.5669646" lon="10.2571246"/><rtept lat="59.5669763" lon="10.2573156"/><rtept lat="59.5669246" lon="10.2573546"/><rtept lat="59.5669146" lon="10.2573746"/><rtept lat="59.5669046" lon="10.2574046"/><rtept lat="59.5668946" lon="10.2574246"/><rtept lat="59.5668746" lon="10.2574346"/><rtept lat="59.5668546" lon="10.2574446"/><rtept lat="59.5667578" lon="10.2574412"/><rtept lat="59.5666609" lon="10.2574378"/><rtept lat="59.5663456" lon="10.2575197"/><rtept lat="59.5661392" lon="10.257588"/><rtept lat="59.5657887" lon="10.2575209"/><rtept lat="59.5654381" lon="10.2574539"/><rtept lat="59.5653696" lon="10.2574812"/><rtept lat="59.5653011" lon="10.2575086"/><rtept lat="59.5652963" lon="10.2574157"/><rtept lat="59.5652915" lon="10.2573227"/><rtept lat="59.5652751" lon="10.2571255"/><rtept lat="59.5652588" lon="10.2569282"/><rtept lat="59.5652415" lon="10.2568493"/><rtept lat="59.5652323" lon="10.2567783"/><rtept lat="59.5652306" lon="10.2567445"/><rtept lat="59.5652194" lon="10.2566746"/><rtept lat="59.5652049" lon="10.2565864"/><rtept lat="59.5651715" lon="10.256442"/><rtept lat="59.5651586" lon="10.2563668"/><rtept lat="59.5651367" lon="10.2562662"/></rte></gpx>