<gpx xmlns="http://www.topografix.com/GPX/1/1" xmlns:xsi="http://www.w3.org/2001/XMLSchema-instance" xsi:schemaLocation="http://www.topografix.com/GPX/1/1 http://www.topografix.com/GPX/1/1/gpx.xsd" version="1.1" creator="OpenLayers"><wpt lat="59.5651" lon="10.256204"><name>Starten på Rød Lang</name></wpt><wpt lat="59.565141" lon="10.256257"><name>Slutten på Rød Lang</name></wpt><rte><name>track</name><rtept lat="59.565118" lon="10.25619"/><rtept lat="59.565103" lon="10.25614"/><rtept lat="59.565085" lon="10.255904"/><rtept lat="59.565062" lon="10.255634"/><rtept lat="59.564998" lon="10.25548"/><rtept lat="59.564917" lon="10.255334"/><rtept lat="59.564792" lon="10.255244"/><rtept lat="59.564513" lon="10.255112"/><rtept lat="59.564367" lon="10.25509"/><rtept lat="59.564317" lon="10.255126"/><rtept lat="59.564285" lon="10.25519"/><rtept lat="59.564285" lon="10.255262"/><rtept lat="59.564291" lon="10.25535"/><rtept lat="59.564295" lon="10.255496"/><rtept lat="59.564262" lon="10.255578"/><rtept lat="59.564262" lon="10.25564"/><rtept lat="59.564255" lon="10.255743"/><rtept lat="59.564226" lon="10.255842"/><rtept lat="59.564202" lon="10.255918"/><rtept lat="59.564137" lon="10.255954"/><rtept lat="59.563998" lon="10.256"/><rtept lat="59.563743" lon="10.256034"/><rtept lat="59.563512" lon="10.256086"/><rtept lat="59.563502" lon="10.256104"/><rtept lat="59.563295" lon="10.256088"/><rtept lat="59.563148" lon="10.256098"/><rtept lat="59.563077" lon="10.256074"/><rtept lat="59.562988" lon="10.25614"/><rtept lat="59.562908" lon="10.256252"/><rtept lat="59.562832" lon="10.2565"/><rtept lat="59.562838" lon="10.256632"/><rtept lat="59.562868" lon="10.256648"/><rtept lat="59.563065" lon="10.256424"/><rtept lat="59.563197" lon="10.256352"/><rtept lat="59.563232" lon="10.256302"/><rtept lat="59.563318" lon="10.256326"/><rtept lat="59.563345" lon="10.256316"/><rtept lat="59.5634" lon="10.256298"/><rtept lat="59.563788" lon="10.256192"/><rtept lat="59.563857" lon="10.256206"/><rtept lat="59.563965" lon="10.256278"/><rtept lat="59.563982" lon="10.256268"/><rtept lat="59.564038" lon="10.256294"/><rtept lat="59.564163" lon="10.256284"/><rtept lat="59.564192" lon="10.256226"/><rtept lat="59.564218" lon="10.256112"/><rtept lat="59.564222" lon="10.255992"/><rtept lat="59.564255" lon="10.255986"/><rtept lat="59.564297" lon="10.255936"/><rtept lat="59.564314" lon="10.255933"/><rtept lat="59.564348" lon="10.255904"/><rtept lat="59.564422" lon="10.255932"/><rtept lat="59.56446" lon="10.255982"/><rtept lat="59.564483" lon="10.256076"/><rtept lat="59.564515" lon="10.256532"/><rtept lat="59.5645" lon="10.256716"/><rtept lat="59.564437" lon="10.256866"/><rtept lat="59.564398" lon="10.256898"/><rtept lat="59.564378" lon="10.256892"/><rtept lat="59.564363" lon="10.256846"/><rtept lat="59.564392" lon="10.256684"/><rtept lat="59.564372" lon="10.256316"/><rtept lat="59.564353" lon="10.256234"/><rtept lat="59.564307" lon="10.256176"/><rtept lat="59.56429" lon="10.256194"/><rtept lat="59.564275" lon="10.256354"/><rtept lat="59.564293" lon="10.256376"/><rtept lat="59.564282" lon="10.256416"/><rtept lat="59.564305" lon="10.256528"/><rtept lat="59.564263" lon="10.25661"/><rtept lat="59.564285" lon="10.256694"/><rtept lat="59.564313" lon="10.256982"/><rtept lat="59.564308" lon="10.257036"/><rtept lat="59.56429" lon="10.257062"/><rtept lat="59.56427" lon="10.257038"/><rtept lat="59.564272" lon="10.256926"/><rtept lat="59.56426" lon="10.256838"/><rtept lat="59.564243" lon="10.256816"/><rtept lat="59.564234" lon="10.256746"/><rtept lat="59.56422" lon="10.25665"/><rtept lat="59.564248" lon="10.256592"/><rtept lat="59.564263" lon="10.25653"/><rtept lat="59.564217" lon="10.256496"/><rtept lat="59.564153" lon="10.25653"/><rtept lat="59.564138" lon="10.256494"/><rtept lat="59.564102" lon="10.256416"/><rtept lat="59.564073" lon="10.25644"/><rtept lat="59.564047" lon="10.256514"/><rtept lat="59.56409" lon="10.256594"/><rtept lat="59.564097" lon="10.256658"/><rtept lat="59.564112" lon="10.256676"/><rtept lat="59.564193" lon="10.257082"/><rtept lat="59.564285" lon="10.257246"/><rtept lat="59.564298" lon="10.257296"/><rtept lat="59.564305" lon="10.25738"/><rtept lat="59.564283" lon="10.257434"/><rtept lat="59.564247" lon="10.25742"/><rtept lat="59.564208" lon="10.257356"/><rtept lat="59.564093" lon="10.257086"/><rtept lat="59.564007" lon="10.256806"/><rtept lat="59.563998" lon="10.256762"/><rtept lat="59.563935" lon="10.256596"/><rtept lat="59.563848" lon="10.25634"/><rtept lat="59.56385" lon="10.256556"/><rtept lat="59.563897" lon="10.25672"/><rtept lat="59.56388" lon="10.256826"/><rtept lat="59.563778" lon="10.257006"/><rtept lat="59.563705" lon="10.257186"/><rtept lat="59.563682" lon="10.257198"/><rtept lat="59.563642" lon="10.257186"/><rtept lat="59.563628" lon="10.25721"/><rtept lat="59.563573" lon="10.25715"/><rtept lat="59.563548" lon="10.25708"/><rtept lat="59.563555" lon="10.257018"/><rtept lat="59.563597" lon="10.256914"/><rtept lat="59.563657" lon="10.256842"/><rtept lat="59.563678" lon="10.256796"/><rtept lat="59.563715" lon="10.256692"/><rtept lat="59.563722" lon="10.256502"/><rtept lat="59.563698" lon="10.25648"/><rtept lat="59.563663" lon="10.256534"/><rtept lat="59.56365" lon="10.256516"/><rtept lat="59.563553" lon="10.256546"/><rtept lat="59.56352" lon="10.25659"/><rtept lat="59.563472" lon="10.25658"/><rtept lat="59.56346" lon="10.256636"/><rtept lat="59.563435" lon="10.256602"/><rtept lat="59.563283" lon="10.25681"/><rtept lat="59.563203" lon="10.256776"/><rtept lat="59.563186" lon="10.25681"/><rtept lat="59.563132" lon="10.25681"/><rtept lat="59.563052" lon="10.256864"/><rtept lat="59.562908" lon="10.256748"/><rtept lat="59.562812" lon="10.256834"/><rtept lat="59.562747" lon="10.256924"/><rtept lat="59.562725" lon="10.256944"/><rtept lat="59.562522" lon="10.256902"/><rtept lat="59.562523" lon="10.256922"/><rtept lat="59.562413" lon="10.25696"/><rtept lat="59.562398" lon="10.257002"/><rtept lat="59.5624" lon="10.257096"/><rtept lat="59.562448" lon="10.257172"/><rtept lat="59.562453" lon="10.257206"/><rtept lat="59.562442" lon="10.257236"/><rtept lat="59.56239" lon="10.257272"/><rtept lat="59.562248" lon="10.257196"/><rtept lat="59.562083" lon="10.257064"/><rtept lat="59.56206" lon="10.257072"/><rtept lat="59.562022" lon="10.257"/><rtept lat="59.561948" lon="10.256942"/><rtept lat="59.56192" lon="10.256892"/><rtept lat="59.561848" lon="10.25662"/><rtept lat="59.561837" lon="10.256406"/><rtept lat="59.561865" lon="10.256348"/><rtept lat="59.561938" lon="10.256296"/><rtept lat="59.562047" lon="10.256268"/><rtept lat="59.5621" lon="10.256278"/><rtept lat="59.562127" lon="10.256208"/><rtept lat="59.562167" lon="10.256192"/><rtept lat="59.562193" lon="10.256128"/><rtept lat="59.562225" lon="10.256126"/><rtept lat="59.562305" lon="10.256046"/><rtept lat="59.562413" lon="10.255994"/><rtept lat="59.562505" lon="10.255942"/><rtept lat="59.56259" lon="10.255822"/><rtept lat="59.562677" lon="10.255714"/><rtept lat="59.562688" lon="10.255614"/><rtept lat="59.562666" lon="10.255406"/><rtept lat="59.56261" lon="10.255282"/><rtept lat="59.562565" lon="10.255226"/><rtept lat="59.56254" lon="10.255214"/><rtept lat="59.562492" lon="10.255252"/><rtept lat="59.562465" lon="10.255342"/><rtept lat="59.562406" lon="10.255344"/><rtept lat="59.562397" lon="10.255262"/><rtept lat="59.562403" lon="10.255196"/><rtept lat="59.56241" lon="10.255094"/><rtept lat="59.562436" lon="10.25493"/><rtept lat="59.562443" lon="10.254432"/><rtept lat="59.562525" lon="10.253916"/><rtept lat="59.562522" lon="10.25384"/><rtept lat="59.562481" lon="10.25379"/><rtept lat="59.562436" lon="10.253794"/><rtept lat="59.562402" lon="10.253836"/><rtept lat="59.562393" lon="10.253996"/><rtept lat="59.562381" lon="10.254022"/><rtept lat="59.562342" lon="10.253994"/><rtept lat="59.562324" lon="10.254018"/><rtept lat="59.562321" lon="10.25405"/><rtept lat="59.562364" lon="10.254152"/><rtept lat="59.562362" lon="10.2542"/><rtept lat="59.5624" lon="10.254296"/><rtept lat="59.562362" lon="10.254342"/><rtept lat="59.562268" lon="10.25434"/><rtept lat="59.562225" lon="10.254398"/><rtept lat="59.56223" lon="10.25448"/><rtept lat="59.562262" lon="10.254586"/><rtept lat="59.562252" lon="10.254636"/><rtept lat="59.562205" lon="10.254676"/><rtept lat="59.562178" lon="10.254666"/><rtept lat="59.562152" lon="10.254534"/><rtept lat="59.562145" lon="10.254338"/><rtept lat="59.562208" lon="10.254114"/><rtept lat="59.562242" lon="10.254018"/><rtept lat="59.562352" lon="10.253662"/><rtept lat="59.562383" lon="10.253556"/><rtept lat="59.56243" lon="10.253498"/><rtept lat="59.562442" lon="10.253434"/><rtept lat="59.56247" lon="10.253408"/><rtept lat="59.562533" lon="10.253428"/><rtept lat="59.562565" lon="10.253468"/><rtept lat="59.562587" lon="10.253546"/><rtept lat="59.562588" lon="10.253628"/><rtept lat="59.562563" lon="10.253752"/><rtept lat="59.562565" lon="10.25391"/><rtept lat="59.562572" lon="10.253958"/><rtept lat="59.56263" lon="10.25407"/><rtept lat="59.562642" lon="10.254158"/><rtept lat="59.562617" lon="10.25421"/><rtept lat="59.562593" lon="10.254206"/><rtept lat="59.56249" lon="10.254288"/><rtept lat="59.562487" lon="10.254362"/><rtept lat="59.562472" lon="10.254462"/><rtept lat="59.56248" lon="10.254542"/><rtept lat="59.56248" lon="10.254586"/><rtept lat="59.562478" lon="10.254602"/><rtept lat="59.562492" lon="10.254652"/><rtept lat="59.562533" lon="10.254706"/><rtept lat="59.56258" lon="10.254718"/><rtept lat="59.562624" lon="10.254724"/><rtept lat="59.562662" lon="10.254684"/><rtept lat="59.562702" lon="10.254676"/><rtept lat="59.562745" lon="10.254632"/><rtept lat="59.562798" lon="10.25463"/><rtept lat="59.562937" lon="10.254568"/><rtept lat="59.563087" lon="10.254516"/><rtept lat="59.563239" lon="10.254462"/><rtept lat="59.563321" lon="10.254466"/><rtept lat="59.563405" lon="10.254426"/><rtept lat="59.563424" lon="10.254394"/><rtept lat="59.563436" lon="10.254324"/><rtept lat="59.563437" lon="10.254292"/><rtept lat="59.563402" lon="10.254188"/><rtept lat="59.563393" lon="10.254098"/><rtept lat="59.563355" lon="10.254062"/><rtept lat="59.563338" lon="10.254036"/><rtept lat="59.563313" lon="10.253996"/><rtept lat="59.563245" lon="10.253978"/><rtept lat="59.56321" lon="10.254004"/><rtept lat="59.563158" lon="10.253952"/><rtept lat="59.563162" lon="10.25395"/><rtept lat="59.56302" lon="10.253916"/><rtept lat="59.562953" lon="10.253942"/><rtept lat="59.562887" lon="10.253998"/><rtept lat="59.562866" lon="10.253998"/><rtept lat="59.562725" lon="10.253794"/><rtept lat="59.562708" lon="10.253548"/><rtept lat="59.562673" lon="10.25355"/><rtept lat="59.562643" lon="10.253458"/><rtept lat="59.562585" lon="10.253366"/><rtept lat="59.562482" lon="10.253272"/><rtept lat="59.562459" lon="10.253268"/><rtept lat="59.562445" lon="10.253296"/><rtept lat="59.562172" lon="10.254148"/><rtept lat="59.562027" lon="10.25452"/><rtept lat="59.561925" lon="10.254886"/><rtept lat="59.561892" lon="10.255056"/><rtept lat="59.56186" lon="10.25508"/><rtept lat="59.561757" lon="10.254878"/><rtept lat="59.561655" lon="10.254762"/><rtept lat="59.561617" lon="10.254634"/><rtept lat="59.561683" lon="10.254484"/><rtept lat="59.561712" lon="10.254222"/><rtept lat="59.561742" lon="10.254104"/><rtept lat="59.561843" lon="10.253974"/><rtept lat="59.561918" lon="10.253748"/><rtept lat="59.561972" lon="10.253646"/><rtept lat="59.56207" lon="10.2535"/><rtept lat="59.562378" lon="10.253212"/><rtept lat="59.562612" lon="10.252878"/><rtept lat="59.562648" lon="10.252792"/><rtept lat="59.562688" lon="10.252708"/><rtept lat="59.562772" lon="10.252664"/><rtept lat="59.56309" lon="10.252546"/><rtept lat="59.56314" lon="10.252604"/><rtept lat="59.563213" lon="10.252828"/><rtept lat="59.563245" lon="10.252862"/><rtept lat="59.56346" lon="10.25343"/><rtept lat="59.563507" lon="10.253506"/><rtept lat="59.563498" lon="10.253536"/><rtept lat="59.563513" lon="10.253602"/><rtept lat="59.563567" lon="10.25374"/><rtept lat="59.563552" lon="10.25388"/><rtept lat="59.563555" lon="10.25392"/><rtept lat="59.563515" lon="10.25399"/><rtept lat="59.563502" lon="10.254054"/><rtept lat="59.563463" lon="10.254104"/><rtept lat="59.563462" lon="10.254136"/><rtept lat="59.563488" lon="10.254156"/><rtept lat="59.563488" lon="10.254156"/><rtept lat="59.563513" lon="10.254184"/><rtept lat="59.563572" lon="10.254178"/><rtept lat="59.563678" lon="10.254154"/><rtept lat="59.56374" lon="10.254082"/><rtept lat="59.563873" lon="10.253796"/><rtept lat="59.563983" lon="10.253682"/><rtept lat="59.564035" lon="10.25366"/><rtept lat="59.564075" lon="10.25368"/><rtept lat="59.564188" lon="10.253802"/><rtept lat="59.564222" lon="10.253796"/><rtept lat="59.564288" lon="10.253836"/><rtept lat="59.56432" lon="10.25398"/><rtept lat="59.564308" lon="10.25409"/><rtept lat="59.564292" lon="10.254152"/><rtept lat="59.564243" lon="10.254206"/><rtept lat="59.564173" lon="10.254396"/><rtept lat="59.564127" lon="10.25441"/><rtept lat="59.564097" lon="10.254388"/><rtept lat="59.564078" lon="10.254302"/><rtept lat="59.564075" lon="10.254128"/><rtept lat="59.564055" lon="10.25404"/><rtept lat="59.564008" lon="10.254112"/><rtept lat="59.563958" lon="10.25414"/><rtept lat="59.563945" lon="10.25418"/><rtept lat="59.56395" lon="10.254246"/><rtept lat="59.563935" lon="10.254276"/><rtept lat="59.563912" lon="10.254264"/><rtept lat="59.563865" lon="10.254318"/><rtept lat="59.56378" lon="10.254506"/><rtept lat="59.563778" lon="10.254572"/><rtept lat="59.563762" lon="10.254612"/><rtept lat="59.563843" lon="10.254642"/><rtept lat="59.563982" lon="10.254724"/><rtept lat="59.564113" lon="10.254862"/><rtept lat="59.564188" lon="10.254876"/><rtept lat="59.564238" lon="10.254836"/><rtept lat="59.564455" lon="10.254886"/><rtept lat="59.564539" lon="10.254954"/><rtept lat="59.564794" lon="10.25505"/><rtept lat="59.564929" lon="10.255114"/><rtept lat="59.565054" lon="10.255142"/><rtept lat="59.565096" lon="10.255074"/><rtept lat="59.565099" lon="10.254972"/><rtept lat="59.565078" lon="10.254882"/><rtept lat="59.564951" lon="10.254838"/><rtept lat="59.564862" lon="10.254844"/><rtept lat="59.564745" lon="10.254858"/><rtept lat="59.564591" lon="10.254862"/><rtept lat="59.56448" lon="10.254662"/><rtept lat="59.56446" lon="10.254516"/><rtept lat="59.564458" lon="10.254086"/><rtept lat="59.56444" lon="10.253866"/><rtept lat="59.564403" lon="10.25372"/><rtept lat="59.564318" lon="10.253484"/><rtept lat="59.564263" lon="10.253396"/><rtept lat="59.564193" lon="10.253352"/><rtept lat="59.563995" lon="10.253316"/><rtept lat="59.563937" lon="10.253336"/><rtept lat="59.563883" lon="10.253388"/><rtept lat="59.56367" lon="10.25345"/><rtept lat="59.563548" lon="10.253326"/><rtept lat="59.563413" lon="10.25308"/><rtept lat="59.563428" lon="10.253036"/><rtept lat="59.563477" lon="10.252978"/><rtept lat="59.56364" lon="10.252886"/><rtept lat="59.563818" lon="10.252802"/><rtept lat="59.563982" lon="10.252782"/><rtept lat="59.564065" lon="10.252792"/><rtept lat="59.564182" lon="10.252896"/><rtept lat="59.564235" lon="10.252914"/><rtept lat="59.564413" lon="10.252912"/><rtept lat="59.56452" lon="10.252958"/><rtept lat="59.56459" lon="10.253076"/><rtept lat="59.564682" lon="10.253324"/><rtept lat="59.564907" lon="10.253816"/><rtept lat="59.565018" lon="10.254112"/><rtept lat="59.56507" lon="10.254166"/><rtept lat="59.565473" lon="10.254476"/><rtept lat="59.565682" lon="10.254506"/><rtept lat="59.565833" lon="10.254558"/><rtept lat="59.566032" lon="10.254594"/><rtept lat="59.566157" lon="10.254562"/><rtept lat="59.566545" lon="10.254106"/><rtept lat="59.566813" lon="10.253908"/><rtept lat="59.567127" lon="10.253706"/><rtept lat="59.567232" lon="10.253672"/><rtept lat="59.567557" lon="10.253482"/><rtept lat="59.567633" lon="10.253566"/><rtept lat="59.567637" lon="10.253682"/><rtept lat="59.567617" lon="10.253786"/><rtept lat="59.567542" lon="10.253948"/><rtept lat="59.567395" lon="10.254104"/><rtept lat="59.567247" lon="10.254158"/><rtept lat="59.567053" lon="10.254356"/><rtept lat="59.566853" lon="10.254512"/><rtept lat="59.56682" lon="10.254686"/><rtept lat="59.566832" lon="10.255016"/><rtept lat="59.566918" lon="10.255708"/><rtept lat="59.566923" lon="10.255898"/><rtept lat="59.566962" lon="10.256268"/><rtept lat="59.567" lon="10.256496"/><rtept lat="59.566982" lon="10.256648"/><rtept lat="59.566992" lon="10.256872"/><rtept lat="59.567012" lon="10.256958"/><rtept lat="59.567003" lon="10.25711"/><rtept lat="59.566977" lon="10.257178"/><rtept lat="59.566935" lon="10.257386"/><rtept lat="59.566905" lon="10.257384"/><rtept lat="59.56687" lon="10.257192"/><rtept lat="59.566833" lon="10.257086"/><rtept lat="59.56678" lon="10.256916"/><rtept lat="59.566719" lon="10.256898"/><rtept lat="59.566673" lon="10.256908"/><rtept lat="59.566636" lon="10.25697"/><rtept lat="59.566593" lon="10.257064"/><rtept lat="59.566474" lon="10.257136"/><rtept lat="59.566381" lon="10.257186"/><rtept lat="59.566259" lon="10.257234"/><rtept lat="59.566183" lon="10.257372"/><rtept lat="59.566102" lon="10.257456"/><rtept lat="59.56604" lon="10.257454"/><rtept lat="59.565978" lon="10.257346"/><rtept lat="59.565917" lon="10.25739"/><rtept lat="59.565883" lon="10.257486"/><rtept lat="59.565786" lon="10.257472"/><rtept lat="59.565725" lon="10.257346"/><rtept lat="59.565649" lon="10.257216"/><rtept lat="59.565564" lon="10.25708"/><rtept lat="59.565512" lon="10.256952"/><rtept lat="59.565478" lon="10.256926"/><rtept lat="59.565439" lon="10.256942"/><rtept lat="59.565432" lon="10.257008"/><rtept lat="59.565437" lon="10.257147"/><rtept lat="59.565445" lon="10.257253"/><rtept lat="59.565452" lon="10.257355"/><rtept lat="59.565439" lon="10.257376"/><rtept lat="59.565371" lon="10.257408"/><rtept lat="59.565308" lon="10.2574"/><rtept lat="59.565243" lon="10.257353"/><rtept lat="59.565176" lon="10.25731"/><rtept lat="59.565116" lon="10.257302"/><rtept lat="59.565076" lon="10.257294"/><rtept lat="59.565052" lon="10.257291"/><rtept lat="59.565025" lon="10.257282"/><rtept lat="59.564939" lon="10.25732"/><rtept lat="59.56488" lon="10.257349"/><rtept lat="59.564821" lon="10.25737"/><rtept lat="59.564784" lon="10.257356"/><rtept lat="59.564757" lon="10.257426"/><rtept lat="59.564724" lon="10.257378"/><rtept lat="59.564686" lon="10.257449"/><rtept lat="59.564662" lon="10.257452"/><rtept lat="59.564663" lon="10.257382"/><rtept lat="59.564642" lon="10.257368"/><rtept lat="59.564604" lon="10.25738"/><rtept lat="59.564593" lon="10.25732"/><rtept lat="59.564593" lon="10.257275"/><rtept lat="59.564622" lon="10.257279"/><rtept lat="59.564657" lon="10.257274"/><rtept lat="59.564679" lon="10.257268"/><rtept lat="59.564721" lon="10.257258"/><rtept lat="59.564799" lon="10.257252"/><rtept lat="59.56486" lon="10.25724"/><rtept lat="59.564937" lon="10.257218"/><rtept lat="59.565022" lon="10.25721"/><rtept lat="59.565096" lon="10.25723"/><rtept lat="59.56517" lon="10.257248"/><rtept lat="59.565211" lon="10.257236"/><rtept lat="59.565234" lon="10.257198"/><rtept lat="59.56525" lon="10.257122"/><rtept lat="59.565253" lon="10.25698"/><rtept lat="59.56523" lon="10.256774"/><rtept lat="59.56521" lon="10.256612"/><rtept lat="59.565168" lon="10.256404"/><rtept lat="59.565103" lon="10.256192"/></rte></gpx>