<gpx xmlns="http://www.topografix.com/GPX/1/1" xmlns:xsi="http://www.w3.org/2001/XMLSchema-instance" xsi:schemaLocation="http://www.topografix.com/GPX/1/1 http://www.topografix.com/GPX/1/1/gpx.xsd" version="1.1" creator="OpenLayers"><wpt lat="59.565112" lon="10.256168"><name>Starten på Rød Kort</name></wpt><wpt lat="59.56511" lon="10.256207"><name>Slutten på Rød kort</name></wpt><rte><name>Rød Kort (XCO)</name><rtept lat="59.565118" lon="10.256209"/><rtept lat="59.565103" lon="10.256159"/><rtept lat="59.565085" lon="10.255922"/><rtept lat="59.565062" lon="10.255652"/><rtept lat="59.564998" lon="10.255498"/><rtept lat="59.564917" lon="10.255352"/><rtept lat="59.564792" lon="10.255262"/><rtept lat="59.564513" lon="10.25513"/><rtept lat="59.564367" lon="10.255109"/><rtept lat="59.564317" lon="10.255144"/><rtept lat="59.564285" lon="10.255209"/><rtept lat="59.564285" lon="10.25528"/><rtept lat="59.564288" lon="10.255348"/><rtept lat="59.564295" lon="10.255515"/><rtept lat="59.564262" lon="10.255597"/><rtept lat="59.564262" lon="10.255659"/><rtept lat="59.564255" lon="10.255762"/><rtept lat="59.564226" lon="10.255861"/><rtept lat="59.564202" lon="10.255937"/><rtept lat="59.564137" lon="10.255972"/><rtept lat="59.563998" lon="10.256019"/><rtept lat="59.563743" lon="10.256052"/><rtept lat="59.563512" lon="10.256104"/><rtept lat="59.563502" lon="10.256122"/><rtept lat="59.563295" lon="10.256107"/><rtept lat="59.563148" lon="10.256117"/><rtept lat="59.563077" lon="10.256092"/><rtept lat="59.562988" lon="10.256159"/><rtept lat="59.562908" lon="10.25627"/><rtept lat="59.562832" lon="10.256519"/><rtept lat="59.562838" lon="10.25665"/><rtept lat="59.562868" lon="10.256667"/><rtept lat="59.563065" lon="10.256442"/><rtept lat="59.563197" lon="10.25637"/><rtept lat="59.563232" lon="10.25632"/><rtept lat="59.563318" lon="10.256345"/><rtept lat="59.563345" lon="10.256335"/><rtept lat="59.5634" lon="10.256317"/><rtept lat="59.563788" lon="10.25621"/><rtept lat="59.563857" lon="10.256224"/><rtept lat="59.563965" lon="10.256297"/><rtept lat="59.563982" lon="10.256287"/><rtept lat="59.564038" lon="10.256312"/><rtept lat="59.564163" lon="10.256302"/><rtept lat="59.564192" lon="10.256244"/><rtept lat="59.564218" lon="10.25613"/><rtept lat="59.564222" lon="10.25601"/><rtept lat="59.564255" lon="10.256004"/><rtept lat="59.564297" lon="10.255955"/><rtept lat="59.564314" lon="10.255952"/><rtept lat="59.564348" lon="10.255922"/><rtept lat="59.564422" lon="10.25595"/><rtept lat="59.56446" lon="10.256"/><rtept lat="59.564483" lon="10.256095"/><rtept lat="59.564515" lon="10.25655"/><rtept lat="59.5645" lon="10.256735"/><rtept lat="59.564437" lon="10.256885"/><rtept lat="59.564398" lon="10.256917"/><rtept lat="59.564378" lon="10.25691"/><rtept lat="59.564363" lon="10.256864"/><rtept lat="59.564392" lon="10.256702"/><rtept lat="59.564372" lon="10.256334"/><rtept lat="59.564353" lon="10.256252"/><rtept lat="59.564307" lon="10.256195"/><rtept lat="59.56429" lon="10.256212"/><rtept lat="59.564275" lon="10.256372"/><rtept lat="59.564293" lon="10.256395"/><rtept lat="59.564282" lon="10.256435"/><rtept lat="59.564305" lon="10.256547"/><rtept lat="59.564263" lon="10.256629"/><rtept lat="59.564285" lon="10.256712"/><rtept lat="59.564313" lon="10.257"/><rtept lat="59.564308" lon="10.257055"/><rtept lat="59.56429" lon="10.25708"/><rtept lat="59.56427" lon="10.257057"/><rtept lat="59.564272" lon="10.256944"/><rtept lat="59.56426" lon="10.256856"/><rtept lat="59.564243" lon="10.256835"/><rtept lat="59.564234" lon="10.256764"/><rtept lat="59.56422" lon="10.256668"/><rtept lat="59.564248" lon="10.25661"/><rtept lat="59.564263" lon="10.256549"/><rtept lat="59.564217" lon="10.256514"/><rtept lat="59.564153" lon="10.256549"/><rtept lat="59.564138" lon="10.256512"/><rtept lat="59.564102" lon="10.256434"/><rtept lat="59.564073" lon="10.256459"/><rtept lat="59.564047" lon="10.256532"/><rtept lat="59.56409" lon="10.256612"/><rtept lat="59.564097" lon="10.256677"/><rtept lat="59.564112" lon="10.256694"/><rtept lat="59.564193" lon="10.2571"/><rtept lat="59.564285" lon="10.257265"/><rtept lat="59.564298" lon="10.257315"/><rtept lat="59.564305" lon="10.257399"/><rtept lat="59.564283" lon="10.257452"/><rtept lat="59.564247" lon="10.257439"/><rtept lat="59.564208" lon="10.257375"/><rtept lat="59.564093" lon="10.257104"/><rtept lat="59.564007" lon="10.256824"/><rtept lat="59.563998" lon="10.256781"/><rtept lat="59.563935" lon="10.256615"/><rtept lat="59.563848" lon="10.256359"/><rtept lat="59.56385" lon="10.256574"/><rtept lat="59.563897" lon="10.256739"/><rtept lat="59.56388" lon="10.256845"/><rtept lat="59.563778" lon="10.257025"/><rtept lat="59.563705" lon="10.257205"/><rtept lat="59.563682" lon="10.257217"/><rtept lat="59.563642" lon="10.257205"/><rtept lat="59.563628" lon="10.257229"/><rtept lat="59.563573" lon="10.257169"/><rtept lat="59.563548" lon="10.257099"/><rtept lat="59.563555" lon="10.257037"/><rtept lat="59.563597" lon="10.256932"/><rtept lat="59.563657" lon="10.25686"/><rtept lat="59.563678" lon="10.256814"/><rtept lat="59.563715" lon="10.25671"/><rtept lat="59.563722" lon="10.25652"/><rtept lat="59.563698" lon="10.256499"/><rtept lat="59.563663" lon="10.256552"/><rtept lat="59.56365" lon="10.256535"/><rtept lat="59.563553" lon="10.256565"/><rtept lat="59.56352" lon="10.256609"/><rtept lat="59.563472" lon="10.256599"/><rtept lat="59.56346" lon="10.256655"/><rtept lat="59.563435" lon="10.25662"/><rtept lat="59.563283" lon="10.256829"/><rtept lat="59.563203" lon="10.256795"/><rtept lat="59.563186" lon="10.256829"/><rtept lat="59.563132" lon="10.256829"/><rtept lat="59.563052" lon="10.256882"/><rtept lat="59.562908" lon="10.256767"/><rtept lat="59.562812" lon="10.256852"/><rtept lat="59.562747" lon="10.256942"/><rtept lat="59.562725" lon="10.256962"/><rtept lat="59.562522" lon="10.25692"/><rtept lat="59.562523" lon="10.25694"/><rtept lat="59.562413" lon="10.256979"/><rtept lat="59.562398" lon="10.25702"/><rtept lat="59.5624" lon="10.257115"/><rtept lat="59.562448" lon="10.25719"/><rtept lat="59.562453" lon="10.257224"/><rtept lat="59.562442" lon="10.257255"/><rtept lat="59.56239" lon="10.25729"/><rtept lat="59.562248" lon="10.257214"/><rtept lat="59.562083" lon="10.257082"/><rtept lat="59.56206" lon="10.25709"/><rtept lat="59.562022" lon="10.257019"/><rtept lat="59.561948" lon="10.25696"/><rtept lat="59.56192" lon="10.25691"/><rtept lat="59.561848" lon="10.256639"/><rtept lat="59.561837" lon="10.256425"/><rtept lat="59.561865" lon="10.256367"/><rtept lat="59.561938" lon="10.256315"/><rtept lat="59.562047" lon="10.256287"/><rtept lat="59.5621" lon="10.256297"/><rtept lat="59.562127" lon="10.256227"/><rtept lat="59.562167" lon="10.25621"/><rtept lat="59.562193" lon="10.256147"/><rtept lat="59.562225" lon="10.256144"/><rtept lat="59.562305" lon="10.256064"/><rtept lat="59.562413" lon="10.256013"/><rtept lat="59.562505" lon="10.25596"/><rtept lat="59.56259" lon="10.25584"/><rtept lat="59.562677" lon="10.255733"/><rtept lat="59.562688" lon="10.255633"/><rtept lat="59.562666" lon="10.255425"/><rtept lat="59.56261" lon="10.255301"/><rtept lat="59.562565" lon="10.255244"/><rtept lat="59.56254" lon="10.255232"/><rtept lat="59.562492" lon="10.25527"/><rtept lat="59.562465" lon="10.25536"/><rtept lat="59.562406" lon="10.255363"/><rtept lat="59.562397" lon="10.25528"/><rtept lat="59.562403" lon="10.255215"/><rtept lat="59.56241" lon="10.255113"/><rtept lat="59.562436" lon="10.254948"/><rtept lat="59.562443" lon="10.25445"/><rtept lat="59.562525" lon="10.253935"/><rtept lat="59.562522" lon="10.253859"/><rtept lat="59.562481" lon="10.253808"/><rtept lat="59.562436" lon="10.253813"/><rtept lat="59.562402" lon="10.253855"/><rtept lat="59.562393" lon="10.254014"/><rtept lat="59.562381" lon="10.254041"/><rtept lat="59.562342" lon="10.254013"/><rtept lat="59.562324" lon="10.254036"/><rtept lat="59.562321" lon="10.254069"/><rtept lat="59.562364" lon="10.254171"/><rtept lat="59.562362" lon="10.254219"/><rtept lat="59.5624" lon="10.254315"/><rtept lat="59.562362" lon="10.25436"/><rtept lat="59.562268" lon="10.254359"/><rtept lat="59.562225" lon="10.254417"/><rtept lat="59.56223" lon="10.254499"/><rtept lat="59.562262" lon="10.254605"/><rtept lat="59.562252" lon="10.254654"/><rtept lat="59.562205" lon="10.254694"/><rtept lat="59.562178" lon="10.254684"/><rtept lat="59.562152" lon="10.254552"/><rtept lat="59.562145" lon="10.254357"/><rtept lat="59.562208" lon="10.254132"/><rtept lat="59.562242" lon="10.254037"/><rtept lat="59.562352" lon="10.25368"/><rtept lat="59.562383" lon="10.253575"/><rtept lat="59.56243" lon="10.253517"/><rtept lat="59.562442" lon="10.253452"/><rtept lat="59.56247" lon="10.253427"/><rtept lat="59.562533" lon="10.253447"/><rtept lat="59.562565" lon="10.253487"/><rtept lat="59.562587" lon="10.253564"/><rtept lat="59.562588" lon="10.253647"/><rtept lat="59.562563" lon="10.25377"/><rtept lat="59.562565" lon="10.253929"/><rtept lat="59.562572" lon="10.253977"/><rtept lat="59.56263" lon="10.254089"/><rtept lat="59.562642" lon="10.254177"/><rtept lat="59.562617" lon="10.254229"/><rtept lat="59.562593" lon="10.254225"/><rtept lat="59.56249" lon="10.254307"/><rtept lat="59.562487" lon="10.25438"/><rtept lat="59.562472" lon="10.25448"/><rtept lat="59.56248" lon="10.25456"/><rtept lat="59.56248" lon="10.254604"/><rtept lat="59.562478" lon="10.25462"/><rtept lat="59.562492" lon="10.25467"/><rtept lat="59.562533" lon="10.254724"/><rtept lat="59.56258" lon="10.254737"/><rtept lat="59.562624" lon="10.254742"/><rtept lat="59.562662" lon="10.254702"/><rtept lat="59.562702" lon="10.254695"/><rtept lat="59.562745" lon="10.254651"/><rtept lat="59.562798" lon="10.254648"/><rtept lat="59.562937" lon="10.254587"/><rtept lat="59.563087" lon="10.254534"/><rtept lat="59.563239" lon="10.25448"/><rtept lat="59.563321" lon="10.254484"/><rtept lat="59.563405" lon="10.254445"/><rtept lat="59.563424" lon="10.254413"/><rtept lat="59.563436" lon="10.254343"/><rtept lat="59.563437" lon="10.25431"/><rtept lat="59.5634645" lon="10.2543042"/><rtept lat="59.56349" lon="10.254289"/><rtept lat="59.56349" lon="10.254289"/><rtept lat="59.5635286" lon="10.2543147"/><rtept lat="59.5635727" lon="10.2543164"/><rtept lat="59.563586" lon="10.254381"/><rtept lat="59.563732" lon="10.254443"/><rtept lat="59.56378" lon="10.254525"/><rtept lat="59.563778" lon="10.25459"/><rtept lat="59.563762" lon="10.25463"/><rtept lat="59.563843" lon="10.25466"/><rtept lat="59.563982" lon="10.254742"/><rtept lat="59.564113" lon="10.25488"/><rtept lat="59.564188" lon="10.254895"/><rtept lat="59.564238" lon="10.254854"/><rtept lat="59.564455" lon="10.254904"/><rtept lat="59.564539" lon="10.254972"/><rtept lat="59.564794" lon="10.255069"/><rtept lat="59.564929" lon="10.255132"/><rtept lat="59.565054" lon="10.255161"/><rtept lat="59.565096" lon="10.255092"/><rtept lat="59.565099" lon="10.254991"/><rtept lat="59.565078" lon="10.2549"/><rtept lat="59.564951" lon="10.254857"/><rtept lat="59.564862" lon="10.254862"/><rtept lat="59.564745" lon="10.254876"/><rtept lat="59.564591" lon="10.25488"/><rtept lat="59.56448" lon="10.25468"/><rtept lat="59.56446" lon="10.254534"/><rtept lat="59.564458" lon="10.254104"/><rtept lat="59.56444" lon="10.253885"/><rtept lat="59.564403" lon="10.253739"/><rtept lat="59.564318" lon="10.253502"/><rtept lat="59.564263" lon="10.253415"/><rtept lat="59.564193" lon="10.25337"/><rtept lat="59.563995" lon="10.253334"/><rtept lat="59.563937" lon="10.253355"/><rtept lat="59.563883" lon="10.253407"/><rtept lat="59.56367" lon="10.253469"/><rtept lat="59.563548" lon="10.253344"/><rtept lat="59.563413" lon="10.253099"/><rtept lat="59.563428" lon="10.253054"/><rtept lat="59.563477" lon="10.252997"/><rtept lat="59.56364" lon="10.252905"/><rtept lat="59.563818" lon="10.25282"/><rtept lat="59.563982" lon="10.2528"/><rtept lat="59.564065" lon="10.25281"/><rtept lat="59.564182" lon="10.252914"/><rtept lat="59.564235" lon="10.252932"/><rtept lat="59.564413" lon="10.25293"/><rtept lat="59.56452" lon="10.252977"/><rtept lat="59.56459" lon="10.253095"/><rtept lat="59.564682" lon="10.253342"/><rtept lat="59.564907" lon="10.253834"/><rtept lat="59.565018" lon="10.25413"/><rtept lat="59.56507" lon="10.254184"/><rtept lat="59.565473" lon="10.254495"/><rtept lat="59.565682" lon="10.254524"/><rtept lat="59.565833" lon="10.254577"/><rtept lat="59.566032" lon="10.254612"/><rtept lat="59.566157" lon="10.25458"/><rtept lat="59.566545" lon="10.254124"/><rtept lat="59.566813" lon="10.253927"/><rtept lat="59.567127" lon="10.253724"/><rtept lat="59.567232" lon="10.25369"/><rtept lat="59.567557" lon="10.2535"/><rtept lat="59.567633" lon="10.253585"/><rtept lat="59.567637" lon="10.2537"/><rtept lat="59.567617" lon="10.253805"/><rtept lat="59.567542" lon="10.253967"/><rtept lat="59.567395" lon="10.254122"/><rtept lat="59.567247" lon="10.254177"/><rtept lat="59.567053" lon="10.254375"/><rtept lat="59.566853" lon="10.25453"/><rtept lat="59.56682" lon="10.254704"/><rtept lat="59.566832" lon="10.255035"/><rtept lat="59.566918" lon="10.255727"/><rtept lat="59.566923" lon="10.255917"/><rtept lat="59.566962" lon="10.256287"/><rtept lat="59.567" lon="10.256515"/><rtept lat="59.566982" lon="10.256667"/><rtept lat="59.566992" lon="10.25689"/><rtept lat="59.567012" lon="10.256977"/><rtept lat="59.567003" lon="10.257129"/><rtept lat="59.566977" lon="10.257197"/><rtept lat="59.566935" lon="10.257405"/><rtept lat="59.566905" lon="10.257402"/><rtept lat="59.56687" lon="10.25721"/><rtept lat="59.566833" lon="10.257104"/><rtept lat="59.56678" lon="10.256935"/><rtept lat="59.566719" lon="10.256917"/><rtept lat="59.566673" lon="10.256927"/><rtept lat="59.566636" lon="10.256989"/><rtept lat="59.566593" lon="10.257082"/><rtept lat="59.566474" lon="10.257154"/><rtept lat="59.566381" lon="10.257204"/><rtept lat="59.566259" lon="10.257252"/><rtept lat="59.566183" lon="10.25739"/><rtept lat="59.566102" lon="10.257474"/><rtept lat="59.56604" lon="10.257472"/><rtept lat="59.565978" lon="10.257364"/><rtept lat="59.565917" lon="10.257408"/><rtept lat="59.565883" lon="10.257505"/><rtept lat="59.565786" lon="10.25749"/><rtept lat="59.565725" lon="10.257364"/><rtept lat="59.565649" lon="10.257234"/><rtept lat="59.565564" lon="10.257099"/><rtept lat="59.565512" lon="10.25697"/><rtept lat="59.565478" lon="10.256944"/><rtept lat="59.565439" lon="10.25696"/><rtept lat="59.565432" lon="10.257027"/><rtept lat="59.565437" lon="10.257166"/><rtept lat="59.565446" lon="10.257281"/><rtept lat="59.565452" lon="10.257374"/><rtept lat="59.565439" lon="10.257395"/><rtept lat="59.565371" lon="10.257426"/><rtept lat="59.565308" lon="10.257418"/><rtept lat="59.565237" lon="10.257367"/><rtept lat="59.565176" lon="10.257329"/><rtept lat="59.565098" lon="10.257318"/><rtept lat="59.565025" lon="10.257301"/><rtept lat="59.564962" lon="10.257327"/><rtept lat="59.564895" lon="10.257362"/><rtept lat="59.564821" lon="10.257389"/><rtept lat="59.564784" lon="10.257375"/><rtept lat="59.564757" lon="10.257444"/><rtept lat="59.564724" lon="10.257397"/><rtept lat="59.564686" lon="10.257468"/><rtept lat="59.564662" lon="10.25747"/><rtept lat="59.564663" lon="10.2574"/><rtept lat="59.564642" lon="10.257386"/><rtept lat="59.564604" lon="10.257399"/><rtept lat="59.564598" lon="10.257367"/><rtept lat="59.564593" lon="10.257338"/><rtept lat="59.564593" lon="10.257294"/><rtept lat="59.564657" lon="10.257293"/><rtept lat="59.564686" lon="10.257286"/><rtept lat="59.564721" lon="10.257277"/><rtept lat="59.564799" lon="10.25727"/><rtept lat="59.56486" lon="10.257259"/><rtept lat="59.564937" lon="10.257237"/><rtept lat="59.565022" lon="10.257228"/><rtept lat="59.565096" lon="10.257249"/><rtept lat="59.56517" lon="10.257266"/><rtept lat="59.565211" lon="10.257255"/><rtept lat="59.565234" lon="10.257216"/><rtept lat="59.56525" lon="10.257141"/><rtept lat="59.565253" lon="10.256999"/><rtept lat="59.56523" lon="10.256792"/><rtept lat="59.56521" lon="10.256631"/><rtept lat="59.565168" lon="10.256423"/><rtept lat="59.565139" lon="10.256332"/><rtept lat="59.565103" lon="10.25621"/></rte><wpt lat="59.563547" lon="10.254744"><name>Rød Kort shortcut</name></wpt></gpx>