<gpx xmlns="http://www.topografix.com/GPX/1/1" xmlns:xsi="http://www.w3.org/2001/XMLSchema-instance" xsi:schemaLocation="http://www.topografix.com/GPX/1/1 http://www.topografix.com/GPX/1/1/gpx.xsd" version="1.1" creator="OpenLayers"><wpt lat="59.5651" lon="10.256202"><name>Starten på XCC</name></wpt><wpt lat="59.565139" lon="10.256257"><name>Slutten på XCC</name></wpt><rte><name>XCC</name><rtept lat="59.565103" lon="10.256213"/><rtept lat="59.565101" lon="10.25619"/><rtept lat="59.565097" lon="10.256167"/><rtept lat="59.565093" lon="10.256143"/><rtept lat="59.565082" lon="10.256019"/><rtept lat="59.565072" lon="10.255894"/><rtept lat="59.56506" lon="10.255774"/><rtept lat="59.565048" lon="10.255654"/><rtept lat="59.565034" lon="10.2556"/><rtept lat="59.56502" lon="10.255546"/><rtept lat="59.564982" lon="10.255466"/><rtept lat="59.564945" lon="10.255386"/><rtept lat="59.564889" lon="10.255343"/><rtept lat="59.564834" lon="10.255299"/><rtept lat="59.564763" lon="10.255261"/><rtept lat="59.564691" lon="10.255223"/><rtept lat="59.564626" lon="10.255187"/><rtept lat="59.56456" lon="10.255151"/><rtept lat="59.564464" lon="10.255131"/><rtept lat="59.564367" lon="10.255111"/><rtept lat="59.564216" lon="10.254968"/><rtept lat="59.564065" lon="10.254825"/><rtept lat="59.564025" lon="10.254805"/><rtept lat="59.563975" lon="10.254775"/><rtept lat="59.563925" lon="10.254755"/><rtept lat="59.563875" lon="10.254735"/><rtept lat="59.563805" lon="10.254705"/><rtept lat="59.563735" lon="10.254675"/><rtept lat="59.563655" lon="10.254645"/><rtept lat="59.563575" lon="10.254635"/><rtept lat="59.563505" lon="10.254615"/><rtept lat="59.563435" lon="10.254605"/><rtept lat="59.563355" lon="10.254615"/><rtept lat="59.563295" lon="10.254625"/><rtept lat="59.563235" lon="10.254645"/><rtept lat="59.563175" lon="10.254665"/><rtept lat="59.563115" lon="10.254675"/><rtept lat="59.563065" lon="10.254695"/><rtept lat="59.563015" lon="10.254725"/><rtept lat="59.562975" lon="10.254745"/><rtept lat="59.562925" lon="10.254765"/><rtept lat="59.562885" lon="10.254785"/><rtept lat="59.562865" lon="10.254805"/><rtept lat="59.562835" lon="10.254815"/><rtept lat="59.562815" lon="10.254815"/><rtept lat="59.562785" lon="10.254835"/><rtept lat="59.562755" lon="10.254845"/><rtept lat="59.562725" lon="10.254855"/><rtept lat="59.562685" lon="10.254875"/><rtept lat="59.562635" lon="10.254885"/><rtept lat="59.562595" lon="10.254895"/><rtept lat="59.562545" lon="10.254905"/><rtept lat="59.562505" lon="10.254915"/><rtept lat="59.562465" lon="10.254925"/><rtept lat="59.562443" lon="10.254935"/><rtept lat="59.562444" lon="10.254878"/><rtept lat="59.562445" lon="10.254821"/><rtept lat="59.562444" lon="10.254776"/><rtept lat="59.562442" lon="10.254731"/><rtept lat="59.56244" lon="10.254664"/><rtept lat="59.562438" lon="10.254597"/><rtept lat="59.562438" lon="10.254522"/><rtept lat="59.562438" lon="10.254448"/><rtept lat="59.562445" lon="10.254405"/><rtept lat="59.562452" lon="10.254363"/><rtept lat="59.562461" lon="10.25432"/><rtept lat="59.56247" lon="10.254277"/><rtept lat="59.562477" lon="10.254224"/><rtept lat="59.562484" lon="10.254172"/><rtept lat="59.562492" lon="10.254116"/><rtept lat="59.562499" lon="10.25406"/><rtept lat="59.562507" lon="10.254012"/><rtept lat="59.562514" lon="10.253964"/><rtept lat="59.562517" lon="10.253949"/><rtept lat="59.56252" lon="10.253934"/><rtept lat="59.562521" lon="10.253913"/><rtept lat="59.562522" lon="10.253892"/><rtept lat="59.562521" lon="10.253879"/><rtept lat="59.562519" lon="10.253866"/><rtept lat="59.562518" lon="10.253861"/><rtept lat="59.562517" lon="10.253857"/><rtept lat="59.562511" lon="10.253854"/><rtept lat="59.562506" lon="10.253852"/><rtept lat="59.5625" lon="10.253852"/><rtept lat="59.562495" lon="10.253852"/><rtept lat="59.562487" lon="10.253865"/><rtept lat="59.562478" lon="10.253877"/><rtept lat="59.562467" lon="10.253919"/><rtept lat="59.562441" lon="10.253928"/><rtept lat="59.562428" lon="10.253922"/><rtept lat="59.56242" lon="10.253918"/><rtept lat="59.562407" lon="10.253921"/><rtept lat="59.562401" lon="10.253917"/><rtept lat="59.562399" lon="10.253926"/><rtept lat="59.562398" lon="10.253957"/><rtept lat="59.562398" lon="10.253947"/><rtept lat="59.562398" lon="10.253934"/><rtept lat="59.5624" lon="10.253969"/><rtept lat="59.562401" lon="10.254002"/><rtept lat="59.56241" lon="10.254058"/><rtept lat="59.562423" lon="10.254086"/><rtept lat="59.56242" lon="10.254108"/><rtept lat="59.562414" lon="10.254149"/><rtept lat="59.56241" lon="10.254177"/><rtept lat="59.562409" lon="10.254199"/><rtept lat="59.562404" lon="10.254231"/><rtept lat="59.562398" lon="10.254251"/><rtept lat="59.562397" lon="10.254272"/><rtept lat="59.562396" lon="10.254292"/><rtept lat="59.562395" lon="10.254303"/><rtept lat="59.562394" lon="10.254313"/><rtept lat="59.562391" lon="10.254323"/><rtept lat="59.562388" lon="10.254333"/><rtept lat="59.562381" lon="10.254342"/><rtept lat="59.562375" lon="10.254351"/><rtept lat="59.562365" lon="10.254354"/><rtept lat="59.562356" lon="10.254358"/><rtept lat="59.562345" lon="10.254358"/><rtept lat="59.562335" lon="10.254358"/><rtept lat="59.562319" lon="10.254352"/><rtept lat="59.562304" lon="10.254347"/><rtept lat="59.562283" lon="10.254352"/><rtept lat="59.562262" lon="10.254357"/><rtept lat="59.562253" lon="10.254364"/><rtept lat="59.562244" lon="10.25437"/><rtept lat="59.56224" lon="10.25438"/><rtept lat="59.562236" lon="10.254389"/><rtept lat="59.562228" lon="10.254402"/><rtept lat="59.562219" lon="10.254415"/><rtept lat="59.562222" lon="10.25443"/><rtept lat="59.562225" lon="10.254445"/><rtept lat="59.562223" lon="10.254454"/><rtept lat="59.562222" lon="10.254463"/><rtept lat="59.562223" lon="10.25448"/><rtept lat="59.562223" lon="10.254498"/><rtept lat="59.562228" lon="10.254502"/><rtept lat="59.562233" lon="10.254507"/><rtept lat="59.562233" lon="10.254516"/><rtept lat="59.562234" lon="10.254526"/><rtept lat="59.562239" lon="10.254538"/><rtept lat="59.562244" lon="10.254551"/><rtept lat="59.562251" lon="10.254577"/><rtept lat="59.562257" lon="10.254604"/><rtept lat="59.562255" lon="10.25461"/><rtept lat="59.562252" lon="10.254617"/><rtept lat="59.562251" lon="10.254629"/><rtept lat="59.56225" lon="10.25464"/><rtept lat="59.562249" lon="10.254646"/><rtept lat="59.562247" lon="10.254652"/><rtept lat="59.562242" lon="10.254657"/><rtept lat="59.562237" lon="10.254661"/><rtept lat="59.562234" lon="10.254664"/><rtept lat="59.562231" lon="10.254668"/><rtept lat="59.562227" lon="10.25467"/><rtept lat="59.562224" lon="10.254671"/><rtept lat="59.562221" lon="10.254676"/><rtept lat="59.562218" lon="10.254681"/><rtept lat="59.562209" lon="10.254686"/><rtept lat="59.5622" lon="10.254692"/><rtept lat="59.562191" lon="10.254686"/><rtept lat="59.562182" lon="10.25468"/><rtept lat="59.562178" lon="10.25468"/><rtept lat="59.562174" lon="10.254681"/><rtept lat="59.562166" lon="10.254661"/><rtept lat="59.562158" lon="10.254642"/><rtept lat="59.562155" lon="10.254617"/><rtept lat="59.562151" lon="10.254593"/><rtept lat="59.562151" lon="10.254586"/><rtept lat="59.56215" lon="10.254579"/><rtept lat="59.562149" lon="10.254572"/><rtept lat="59.562148" lon="10.254566"/><rtept lat="59.562146" lon="10.254541"/><rtept lat="59.562144" lon="10.254516"/><rtept lat="59.562144" lon="10.254473"/><rtept lat="59.562145" lon="10.254429"/><rtept lat="59.562142" lon="10.254391"/><rtept lat="59.562139" lon="10.254353"/><rtept lat="59.562144" lon="10.254326"/><rtept lat="59.56215" lon="10.254298"/><rtept lat="59.562157" lon="10.254279"/><rtept lat="59.562165" lon="10.25426"/><rtept lat="59.562174" lon="10.254231"/><rtept lat="59.562182" lon="10.254202"/><rtept lat="59.562185" lon="10.25418"/><rtept lat="59.562194" lon="10.254172"/><rtept lat="59.56221" lon="10.254104"/><rtept lat="59.562232" lon="10.25405"/><rtept lat="59.562237" lon="10.254024"/><rtept lat="59.562242" lon="10.253999"/><rtept lat="59.562254" lon="10.253958"/><rtept lat="59.562267" lon="10.253917"/><rtept lat="59.562278" lon="10.253896"/><rtept lat="59.56229" lon="10.253875"/><rtept lat="59.562298" lon="10.253834"/><rtept lat="59.562307" lon="10.253792"/><rtept lat="59.562324" lon="10.253755"/><rtept lat="59.56234" lon="10.253718"/><rtept lat="59.562341" lon="10.253705"/><rtept lat="59.562343" lon="10.253692"/><rtept lat="59.562348" lon="10.253673"/><rtept lat="59.562353" lon="10.253653"/><rtept lat="59.562366" lon="10.253617"/><rtept lat="59.562378" lon="10.253581"/><rtept lat="59.56239" lon="10.253571"/><rtept lat="59.562403" lon="10.253562"/><rtept lat="59.562414" lon="10.253538"/><rtept lat="59.562426" lon="10.253514"/><rtept lat="59.56243" lon="10.253487"/><rtept lat="59.562434" lon="10.25346"/><rtept lat="59.562443" lon="10.253444"/><rtept lat="59.562453" lon="10.253429"/><rtept lat="59.562463" lon="10.253427"/><rtept lat="59.562474" lon="10.253425"/><rtept lat="59.562482" lon="10.253427"/><rtept lat="59.56249" lon="10.25343"/><rtept lat="59.562494" lon="10.253412"/><rtept lat="59.562498" lon="10.253393"/><rtept lat="59.562505" lon="10.253371"/><rtept lat="59.562512" lon="10.25335"/><rtept lat="59.562509" lon="10.253341"/><rtept lat="59.562506" lon="10.253333"/><rtept lat="59.562501" lon="10.253321"/><rtept lat="59.562496" lon="10.253309"/><rtept lat="59.562486" lon="10.253298"/><rtept lat="59.562475" lon="10.253288"/><rtept lat="59.562478" lon="10.253269"/><rtept lat="59.562482" lon="10.253251"/><rtept lat="59.562504" lon="10.25319"/><rtept lat="59.562527" lon="10.253128"/><rtept lat="59.562586" lon="10.252966"/><rtept lat="59.562645" lon="10.252805"/><rtept lat="59.562695" lon="10.252685"/><rtept lat="59.562765" lon="10.252615"/><rtept lat="59.562874" lon="10.252603"/><rtept lat="59.562984" lon="10.252591"/><rtept lat="59.563104" lon="10.252453"/><rtept lat="59.563225" lon="10.252315"/><rtept lat="59.563265" lon="10.252295"/><rtept lat="59.563305" lon="10.252285"/><rtept lat="59.563345" lon="10.252275"/><rtept lat="59.563395" lon="10.252275"/><rtept lat="59.563435" lon="10.252275"/><rtept lat="59.563475" lon="10.252285"/><rtept lat="59.563515" lon="10.252295"/><rtept lat="59.563545" lon="10.252305"/><rtept lat="59.563585" lon="10.252325"/><rtept lat="59.563666" lon="10.252356"/><rtept lat="59.563746" lon="10.252387"/><rtept lat="59.563812" lon="10.252484"/><rtept lat="59.563877" lon="10.25258"/><rtept lat="59.564014" lon="10.252747"/><rtept lat="59.56415" lon="10.252913"/><rtept lat="59.564297" lon="10.252984"/><rtept lat="59.564445" lon="10.253055"/><rtept lat="59.564475" lon="10.253095"/><rtept lat="59.564495" lon="10.253125"/><rtept lat="59.564515" lon="10.253165"/><rtept lat="59.564525" lon="10.253215"/><rtept lat="59.564545" lon="10.253255"/><rtept lat="59.564565" lon="10.253305"/><rtept lat="59.564575" lon="10.253355"/><rtept lat="59.564595" lon="10.253405"/><rtept lat="59.564615" lon="10.253455"/><rtept lat="59.564635" lon="10.253495"/><rtept lat="59.564655" lon="10.253535"/><rtept lat="59.564685" lon="10.253575"/><rtept lat="59.564705" lon="10.253615"/><rtept lat="59.564725" lon="10.253665"/><rtept lat="59.564745" lon="10.253705"/><rtept lat="59.564775" lon="10.253745"/><rtept lat="59.564795" lon="10.253785"/><rtept lat="59.564825" lon="10.253825"/><rtept lat="59.564835" lon="10.253865"/><rtept lat="59.564855" lon="10.253905"/><rtept lat="59.564875" lon="10.253945"/><rtept lat="59.564895" lon="10.253985"/><rtept lat="59.564905" lon="10.254015"/><rtept lat="59.564915" lon="10.254035"/><rtept lat="59.564935" lon="10.254055"/><rtept lat="59.564945" lon="10.254085"/><rtept lat="59.564965" lon="10.254115"/><rtept lat="59.564985" lon="10.254135"/><rtept lat="59.565005" lon="10.254155"/><rtept lat="59.565015" lon="10.254165"/><rtept lat="59.565045" lon="10.254185"/><rtept lat="59.565065" lon="10.254205"/><rtept lat="59.565085" lon="10.254215"/><rtept lat="59.565105" lon="10.254235"/><rtept lat="59.565125" lon="10.254245"/><rtept lat="59.565145" lon="10.254265"/><rtept lat="59.565175" lon="10.254285"/><rtept lat="59.565195" lon="10.254315"/><rtept lat="59.565215" lon="10.254335"/><rtept lat="59.565235" lon="10.254365"/><rtept lat="59.565255" lon="10.254395"/><rtept lat="59.565275" lon="10.254425"/><rtept lat="59.565295" lon="10.254445"/><rtept lat="59.565325" lon="10.254465"/><rtept lat="59.565345" lon="10.254485"/><rtept lat="59.565375" lon="10.254505"/><rtept lat="59.565405" lon="10.254525"/><rtept lat="59.565425" lon="10.254535"/><rtept lat="59.565455" lon="10.254555"/><rtept lat="59.565485" lon="10.254565"/><rtept lat="59.565515" lon="10.254575"/><rtept lat="59.565555" lon="10.254585"/><rtept lat="59.565585" lon="10.254595"/><rtept lat="59.565615" lon="10.254595"/><rtept lat="59.565645" lon="10.254605"/><rtept lat="59.565675" lon="10.254605"/><rtept lat="59.565695" lon="10.254605"/><rtept lat="59.565725" lon="10.254605"/><rtept lat="59.565755" lon="10.254605"/><rtept lat="59.565785" lon="10.254605"/><rtept lat="59.565815" lon="10.254605"/><rtept lat="59.565845" lon="10.254605"/><rtept lat="59.565885" lon="10.254605"/><rtept lat="59.565925" lon="10.254595"/><rtept lat="59.565955" lon="10.254595"/><rtept lat="59.565985" lon="10.254585"/><rtept lat="59.566005" lon="10.254575"/><rtept lat="59.566035" lon="10.254575"/><rtept lat="59.566055" lon="10.254565"/><rtept lat="59.566075" lon="10.254545"/><rtept lat="59.566105" lon="10.254525"/><rtept lat="59.566135" lon="10.254495"/><rtept lat="59.566155" lon="10.254485"/><rtept lat="59.566175" lon="10.254465"/><rtept lat="59.566195" lon="10.254445"/><rtept lat="59.566225" lon="10.254415"/><rtept lat="59.566245" lon="10.254395"/><rtept lat="59.566255" lon="10.254365"/><rtept lat="59.566275" lon="10.254355"/><rtept lat="59.566295" lon="10.254345"/><rtept lat="59.566315" lon="10.254335"/><rtept lat="59.566335" lon="10.254335"/><rtept lat="59.566355" lon="10.254325"/><rtept lat="59.566375" lon="10.254325"/><rtept lat="59.566405" lon="10.254325"/><rtept lat="59.566435" lon="10.254335"/><rtept lat="59.566455" lon="10.254335"/><rtept lat="59.566475" lon="10.254345"/><rtept lat="59.566495" lon="10.254365"/><rtept lat="59.566505" lon="10.254395"/><rtept lat="59.566525" lon="10.254425"/><rtept lat="59.566555" lon="10.254465"/><rtept lat="59.566575" lon="10.254505"/><rtept lat="59.566585" lon="10.254555"/><rtept lat="59.566595" lon="10.254615"/><rtept lat="59.566615" lon="10.254675"/><rtept lat="59.566625" lon="10.254735"/><rtept lat="59.566625" lon="10.254795"/><rtept lat="59.566635" lon="10.254855"/><rtept lat="59.566645" lon="10.254915"/><rtept lat="59.566665" lon="10.254965"/><rtept lat="59.566675" lon="10.255025"/><rtept lat="59.566685" lon="10.255085"/><rtept lat="59.566705" lon="10.255145"/><rtept lat="59.566725" lon="10.255195"/><rtept lat="59.566735" lon="10.255255"/><rtept lat="59.566755" lon="10.255315"/><rtept lat="59.566775" lon="10.255375"/><rtept lat="59.566785" lon="10.255435"/><rtept lat="59.566795" lon="10.255505"/><rtept lat="59.566805" lon="10.255565"/><rtept lat="59.566815" lon="10.255625"/><rtept lat="59.566825" lon="10.255695"/><rtept lat="59.566835" lon="10.255755"/><rtept lat="59.566835" lon="10.255814"/><rtept lat="59.566845" lon="10.255884"/><rtept lat="59.566855" lon="10.255944"/><rtept lat="59.566865" lon="10.256004"/><rtept lat="59.566875" lon="10.256074"/><rtept lat="59.566885" lon="10.256144"/><rtept lat="59.566885" lon="10.256204"/><rtept lat="59.566895" lon="10.256264"/><rtept lat="59.5668756" lon="10.2563562"/><rtept lat="59.5667416" lon="10.2565698"/><rtept lat="59.5665651" lon="10.2566811"/><rtept lat="59.5665012" lon="10.2567915"/><rtept lat="59.5664673" lon="10.2568852"/><rtept lat="59.5664346" lon="10.2570071"/><rtept lat="59.5664075" lon="10.2571551"/><rtept lat="59.5663509" lon="10.2572763"/><rtept lat="59.566333" lon="10.257355"/><rtept lat="59.566139" lon="10.257588"/><rtept lat="59.565789" lon="10.257521"/><rtept lat="59.565438" lon="10.257454"/><rtept lat="59.56537" lon="10.257481"/><rtept lat="59.565301" lon="10.257509"/><rtept lat="59.565296" lon="10.257416"/><rtept lat="59.565292" lon="10.257323"/><rtept lat="59.565275" lon="10.257126"/><rtept lat="59.565259" lon="10.256928"/><rtept lat="59.565242" lon="10.256849"/><rtept lat="59.565232" lon="10.256778"/><rtept lat="59.565231" lon="10.256744"/><rtept lat="59.565219" lon="10.256675"/><rtept lat="59.565205" lon="10.256586"/><rtept lat="59.565172" lon="10.256442"/><rtept lat="59.565159" lon="10.256367"/><rtept lat="59.565137" lon="10.256266"/></rte></gpx>